district,schoolName,schoolAddress,medianResult,unit,lead,status,city,county,latitude,longitude
Santa Rita Union Elementary,Abraham Lincoln Elementary,"850 W 9th St, Santa Rosa, CA 95401",NA,NA,NA,exempt,Santa Rosa,Sonoma County,38.4415496630226,-122.736069224231
Santa Rosa Elementary,Albert F. Biella Elementary,2140 Jennings Avenue Santa Rosa CA 95401-9528,11.7,ppb,TRUE,tested,Santa Rosa,Sonoma County,38.4498565597847,-122.75292543966
Santa Rita Union Elementary,Albert F. Biella Elementary,"2140 Jennings Ave, Santa Rosa, CA 95401",NA,NA,NA,exempt,Santa Rosa,Sonoma County,38.4498565597847,-122.75292543966
Rincon Valley Union Elementary,Austin Creek Elementary,1480 Snowy Egret Drive Santa Rosa CA 95409-4387,NA,NA,FALSE,tested,Santa Rosa,Sonoma County,38.4639612951047,-122.637001082939
Rincon Valley Union Elementary,Binkley Elementary Charter,4965 Canyon Drive Santa Rosa CA 95409-3204,NA,NA,FALSE,tested,Santa Rosa,Sonoma County,38.4734684407059,-122.661945014238
Santa Rosa Elementary,Brook Hill Elementary,1850 Vallejo Street Santa Rosa CA 95404-5399,NA,NA,FALSE,tested,Santa Rosa,Sonoma County,38.4378474572541,-122.693907851034
Santa Rita Union Elementary,Brook Hill Elementary,"1850 Vallejo St, Santa Rosa, CA 95404",NA,NA,NA,exempt,Santa Rosa,Sonoma County,38.4378474572541,-122.693907851034
Private,Brush Creek Montessori,1569 Brush Creek Rd Santa Rosa CA 95404,NA,NA,FALSE,tested,Santa Rosa,Sonoma County,38.4662300784948,-122.680655331034
Santa Rosa Elementary,Cesar Chavez Language Academy,2750 West Steele Lane Santa Rosa CA 95403-3236,NA,NA,NA,not tested,Santa Rosa,Sonoma County,38.4596532752192,-122.74700550689
Santa Rosa High,Elsie Allen High,599 Bellevue Ave Santa Rosa CA 95407-7713,7.2,ppb,TRUE,tested,Santa Rosa,Sonoma County,38.401956,-122.734524
Santa Rosa High,Grace High,1700 Fulton Road Santa Rosa CA 95403-1815,NA,NA,NA,not tested,Santa Rosa,Sonoma County,38.45999,-122.769542
Santa Rita Union Elementary,Helen Lehman Elementary,"1700 Jennings Ave, Santa Rosa, CA 95401",NA,NA,NA,exempt,Santa Rosa,Sonoma County,38.449675,-122.745082
Santa Rosa Elementary,Helen M. Lehman Elementary,1700 Jennings Avenue Santa Rosa CA 95401-4556,NA,NA,NA,not tested,Santa Rosa,Sonoma County,38.449675,-122.745082
Santa Rosa High,Herbert Slater Middle,3500 Sonoma Avenue Santa Rosa CA 95405-5414,NA,NA,NA,not tested,Santa Rosa,Sonoma County,38.448451,-122.67303
Santa Rita Union Elementary,Herbert Slater Middle School,"3500 Sonoma Ave, Santa Rosa, CA 95405",NA,NA,NA,exempt,Santa Rosa,Sonoma County,38.448451,-122.67303
Santa Rosa Elementary,Hidden Valley Elementary,3435 Bonita Vista Drive Santa Rosa CA 95404-1573,NA,NA,FALSE,tested,Santa Rosa,Sonoma County,38.4759413345236,-122.699511013836
Santa Rita Union Elementary,Hidden Valley Elementary,"3435 Bonita Vista Dr, Santa Rosa, CA 95404",NA,NA,NA,exempt,Santa Rosa,Sonoma County,38.4759413345236,-122.699511013836
Santa Rosa High,Hilliard Comstock Middle,2750 West Steele Ln Santa Rosa CA 95403-3299,NA,NA,NA,not tested,Santa Rosa,Sonoma County,38.4596532752192,-122.74700550689
Santa Rita Union Elementary,Hilliard Comstock Middle School,"2750 W Steele Ln, Santa Rosa, CA 95403",NA,NA,NA,exempt,Santa Rosa,Sonoma County,38.4596532752192,-122.74700550689
Wright Elementary,J. X. Wilson Elementary,246 Brittain Lane Santa Rosa CA 95401-5810,NA,NA,FALSE,tested,Santa Rosa,Sonoma County,38.4323929052311,-122.752590796292
Piner-Olivet Union Elementary,Jack London Elementary,2707 Francisco Avenue Santa Rosa CA 95403-1869,NA,NA,FALSE,tested,Santa Rosa,Sonoma County,38.47969055,-122.764370240437
Santa Rosa Elementary,James Monroe Elementary,2567 Marlow Road Santa Rosa CA 95403-2473,NA,NA,NA,not tested,Santa Rosa,Sonoma County,38.4568771762267,-122.752206956644
Santa Rita Union Elementary,James Monroe Elementary,"2567 Marlow Rd, Santa Rosa, CA 95403",NA,NA,NA,exempt,Santa Rosa,Sonoma County,38.4568771762267,-122.752206956644
Bellevue Union Elementary,Kawana Elementary,2121 Moraga Drive Santa Rosa CA 95404-6114,NA,NA,FALSE,tested,Santa Rosa,Sonoma County,38.421442,-122.700165
Santa Rosa Elementary,Kid Street Learning Center Charter,709 Davis Street Santa Rosa CA 95401-4767,NA,NA,FALSE,tested,Santa Rosa,Sonoma County,38.4410528030918,-122.721577681559
Santa Rosa High,Lawrence Cook Middle,2480 Sebastopol Rd Santa Rosa CA 95407-6728,NA,NA,NA,not tested,Santa Rosa,Sonoma County,38.4265063653846,-122.746873971154
Santa Rita Union Elementary,Lawrence Cook Middle School,"2480 Sebastopol Rd, Santa Rosa, CA 95407",NA,NA,NA,exempt,Santa Rosa,Sonoma County,38.4265063653846,-122.746873971154
Santa Rosa Elementary,Luther Burbank Elementary,203 South A Street Santa Rosa CA 95401-6302,NA,NA,NA,not tested,Santa Rosa,Sonoma County,38.4349301984282,-122.715417835372
Santa Rita Union Elementary,Luther Burbank Elementary,"203 A St, Santa Rosa, CA 95401",NA,NA,NA,exempt,Santa Rosa,Sonoma County,38.4420427,-122.719497
Rincon Valley Union Elementary,Madrone Elementary,4550 Rinconada Drive Santa Rosa CA 95409-3030,NA,NA,FALSE,tested,Santa Rosa,Sonoma County,38.4689350919091,-122.674921150258
Santa Rosa High,Maria Carrillo High,6975 Montecito Boulevard Santa Rosa CA 95409-2787,NA,NA,FALSE,tested,Santa Rosa,Sonoma County,38.4786683085307,-122.66180515483
Bellevue Union Elementary,Meadow View Elementary,2665 Dutton Meadow Avenue Santa Rosa CA 95407-7730,NA,NA,FALSE,tested,Santa Rosa,Sonoma County,38.4118891364739,-122.729418353432
Santa Rosa High,Mesa High,1235 Mendocino Avenue Santa Rosa CA 95401-4312,NA,NA,NA,not tested,Santa Rosa,Sonoma County,38.4518935037103,-122.717563874814
Santa Rosa High,Montgomery High,1250 Hahman Drive Santa Rosa CA 95405-6934,NA,NA,NA,not tested,Santa Rosa,Sonoma County,38.441091,-122.685192
Santa Rita Union Elementary,Montgomery High School,"1250 Hahman Dr, Santa Rosa, CA 95405",NA,NA,NA,exempt,Santa Rosa,Sonoma County,38.441091,-122.685192
Santa Rosa High,Piner High,1700 Fulton Rd. Santa Rosa CA 95403-1815,NA,NA,NA,not tested,Santa Rosa,Sonoma County,38.45999,-122.769542
Santa Rita Union Elementary,Piner High School,"1700 Fulton Rd, Santa Rosa, CA 95403",NA,NA,NA,exempt,Santa Rosa,Sonoma County,38.45999,-122.769542
Piner-Olivet Union Elementary,Piner-Olivet Charter,2707 Francisco Ave Santa Rosa CA 95403-1869,NA,NA,FALSE,tested,Santa Rosa,Sonoma County,38.47969055,-122.764370240437
Santa Rosa Elementary,Proctor Terrace Elementary,1711 Bryden Lane Santa Rosa CA 95404-3646,NA,NA,NA,not tested,Santa Rosa,Sonoma County,38.4516682405063,-122.698978
Santa Rita Union Elementary,Proctor Terrace Elementary,"1711 Bryden Ln, Santa Rosa, CA 95404",NA,NA,NA,exempt,Santa Rosa,Sonoma County,38.4516682405063,-122.698978
Santa Rosa High,Ridgway High (Continuation),325 Ridgway Avenue Santa Rosa CA 95401-4334,NA,NA,FALSE,tested,Santa Rosa,Sonoma County,38.4494561478343,-122.721731087662
Rincon Valley Union Elementary,Rincon Valley Charter,5305 Dupont Dr Santa Rosa CA 95409-3843,NA,NA,FALSE,tested,Santa Rosa,Sonoma County,38.4694541812252,-122.652754670893
Santa Rosa High,Rincon Valley Middle,4650 Badger Road Santa Rosa CA 95409-2699,NA,NA,NA,not tested,Santa Rosa,Sonoma County,38.482084,-122.672222
Santa Rita Union Elementary,Rincon Valley Middle School,"4650 Badger Rd, Santa Rosa, CA 95409",NA,NA,NA,exempt,Santa Rosa,Sonoma County,38.482084,-122.672222
Wright Elementary,Robert L. Stevens Elementary,2345 Giffen Avenue Santa Rosa CA 95407-7380,NA,NA,FALSE,tested,Santa Rosa,Sonoma County,38.4180125714286,-122.742638714286
Roseland,Roseland Charter,100 Sebastopol Road Santa Rosa CA 95407-6928,NA,NA,NA,not tested,Santa Rosa,Sonoma County,38.430893,-122.723722
Roseland,Roseland Elementary,950 Sebastopol Road Santa Rosa CA 95407-6829,NA,NA,FALSE,tested,Santa Rosa,Sonoma County,38.4291607907849,-122.731032084079
Santa Rosa High,Santa Rosa Accelerated Charter,4650 Badger Rd. Santa Rosa CA 95409-2633,NA,NA,FALSE,tested,Santa Rosa,Sonoma County,38.482084,-122.672222
Santa Rita Union Elementary,Santa Rosa Charter School for the Arts,"756 Humboldt St, Santa Rosa, CA 95404",NA,NA,NA,exempt,Santa Rosa,Sonoma County,38.4468142000657,-122.714596839273
Santa Rosa Elementary,Santa Rosa French-American Charter (SRFACS),1350 Sonoma Avenue Santa Rosa CA 95405-6623,NA,NA,NA,not tested,Santa Rosa,Sonoma County,38.4417433548387,-122.697471516129
Santa Rita Union Elementary,Santa Rosa French-American Charter School,"1350 Sonoma Ave, Santa Rosa, CA 95405",NA,NA,NA,exempt,Santa Rosa,Sonoma County,38.4417433548387,-122.697471516129
Santa Rosa High,Santa Rosa High,1235 Mendocino Ave Santa Rosa CA 95401-4312,NA,NA,NA,not tested,Santa Rosa,Sonoma County,38.4518935037103,-122.717563874814
Santa Rita Union Elementary,Santa Rosa High School,"1235 Mendocino Ave, Santa Rosa, CA 95401",NA,NA,NA,exempt,Santa Rosa,Sonoma County,38.4518935037103,-122.717563874814
Santa Rosa High,Santa Rosa Middle,500 E Street Santa Rosa CA 95404-4373,NA,NA,NA,not tested,Santa Rosa,Sonoma County,38.444909118678,-122.710803668656
Santa Rita Union Elementary,Santa Rosa Middle School,"500 E St, Santa Rosa, CA 95404",NA,NA,NA,exempt,Santa Rosa,Sonoma County,38.444909118678,-122.710803668656
Rincon Valley Union Elementary,Sequoia Elementary,5305 Dupont Drive Santa Rosa CA 95409-3843,NA,NA,FALSE,tested,Santa Rosa,Sonoma County,38.4694541812252,-122.652754670893
Roseland,Sheppard Elementary,1777 West Avenue Santa Rosa CA 95407-7449,NA,NA,NA,not tested,Santa Rosa,Sonoma County,38.4200201557875,-122.727894280611
Valley Center-Pauma Unified,Spring Creek Elementary School,4675 Mayette Ave Santa Rosa CA 95405,NA,NA,FALSE,tested,Santa Rosa,Sonoma County,38.443192096534,-122.667952135091
Rincon Valley Union Elementary,Spring Creek Matanzas Charter,1687 Yulupa Avenue Santa Rosa CA 95405-7778,NA,NA,FALSE,tested,Santa Rosa,Sonoma County,38.4388762773164,-122.671186385661
Private,St. Rose,4300 Old Redwood Highway Santa Rosa CA 95403,NA,NA,FALSE,tested,Santa Rosa,Sonoma County,38.4907484349531,-122.740046817633
Santa Rosa Elementary,Steele Lane Elementary,301 Steele Lane Santa Rosa CA 95403-3148,NA,NA,NA,not tested,Santa Rosa,Sonoma County,38.460548,-122.720485
Santa Rita Union Elementary,Steele Lane Elementary,"301 Steele Ln, Santa Rosa, CA 95403",NA,NA,NA,exempt,Santa Rosa,Sonoma County,38.460548,-122.720485
Bennett Valley Union Elementary,Strawberry Elementary,2311 Horseshoe Drive Santa Rosa CA 95405-8199,NA,NA,FALSE,tested,Santa Rosa,Sonoma County,38.4343508,-122.661728812571
Bellevue Union Elementary,Taylor Mountain Elementary,1210 East Bellevue Avenue Santa Rosa CA 95407-2764,NA,NA,FALSE,tested,Santa Rosa,Sonoma County,38.4018431,-122.7294168
Rincon Valley Union Elementary,Village Elementary Charter,900 Yulupa Avenue Santa Rosa CA 95405-7018,NA,NA,FALSE,tested,Santa Rosa,Sonoma County,38.4453893692928,-122.675958581084
Rincon Valley Union Elementary,Whited Elementary Charter,4995 Sonoma Highway Santa Rosa CA 95409-4240,NA,NA,FALSE,tested,Santa Rosa,Sonoma County,38.4650516,-122.6559292
Bennett Valley Union Elementary,Yulupa Elementary,2250 Mesquite Drive Santa Rosa CA 95405-8310,NA,NA,FALSE,tested,Santa Rosa,Sonoma County,38.429043513197,-122.673829401778
