district,schoolName,schoolAddress,medianResult,unit,lead,status,city,county,latitude,longitude
Anaheim Union High,Anaheim High,811 West Lincoln Avenue Anaheim CA 92805-2499,5.9,ppb,TRUE,tested,Anaheim,Orange County,33.83503095,-117.925578408594
Anaheim Union High,Ball Junior High,1500 West Ball Road Anaheim CA 92802-1626,6.6,ppb,TRUE,tested,Anaheim,Orange County,33.817915,-117.933481
Anaheim Elementary,Barton (Clara) Elementary,1926 Clearbrook Lane Anaheim CA 92804-3519,NA,NA,FALSE,tested,Anaheim,Orange County,33.8234847,-117.9739492
Orange Unified,Canyon Hills,260 South Imperial Highway Anaheim CA 92807-3945,7.3,ppb,TRUE,tested,Anaheim,Orange County,33.8500244194714,-117.790363404066
Orange Unified,Canyon Rim Elementary,1090 The Highlands Drive Anaheim CA 92808-2144,NA,NA,FALSE,tested,Anaheim,Orange County,33.84481905,-117.741318033581
Centralia Elementary,Centralia Elementary,195 North Western Avenue Anaheim CA 92801-6040,NA,NA,FALSE,tested,Anaheim,Orange County,33.832805224714,-118.002330900363
Savanna Elementary,Cerritos Elementary,3731 Cerritos Anaheim CA 92804-4603,NA,NA,NA,not tested,Anaheim,Orange County,33.8104975,-117.9589687
Orange Unified,Crescent Elementary,5001 Gerda Drive Anaheim CA 92807-3090,NA,NA,FALSE,tested,Anaheim,Orange County,33.85241895,-117.807918627197
Magnolia Elementary,Dr. Albert Schweitzer,229 South Dale Avenue Anaheim CA 92804-2006,NA,NA,FALSE,tested,Anaheim,Orange County,33.829522,-117.984805
Magnolia Elementary,Dr. Peter Marshall,2627 Crescent Avenue Anaheim CA 92801-4902,5.3,ppb,TRUE,tested,Anaheim,Orange County,33.8396043224785,-117.978602115288
Anaheim Elementary,Edison (Thomas) Elementary,1526 East Romneya Drive Anaheim CA 92805-1214,NA,NA,FALSE,tested,Anaheim,Orange County,33.8508072344435,-117.89582755434
Orange Unified,El Rancho Charter,181 South Del Giorgio Road Anaheim CA 92808-1307,NA,NA,FALSE,tested,Anaheim,Orange County,33.85772855,-117.767981813085
Anaheim Elementary,Franklin (Benjamin) Elementary,521 West Water Street Anaheim CA 92805-4542,NA,NA,FALSE,tested,Anaheim,Orange County,33.8275996273534,-117.91770965757
Anaheim Elementary,Gauer (Melbourne A.) Elementary,810 North Gilbert Street Anaheim CA 92801-3348,NA,NA,FALSE,tested,Anaheim,Orange County,33.8433681836735,-117.967693408163
Anaheim Union High,Gilbert High (Continuation),1800 Ball Road Anaheim CA 92804-5516,NA,NA,FALSE,tested,Anaheim,Orange County,33.8176576,-117.9682551
Anaheim Elementary,GOALS Academy,412 W. Carl Karcher Way Anaheim CA 92801-2408,NA,NA,FALSE,tested,Anaheim,Orange County,33.8507371412276,-117.922992783813
Anaheim Elementary,Guinn (James M.) Elementary,1051 South Sunkist Street Anaheim CA 92806-5051,NA,NA,FALSE,tested,Anaheim,Orange County,33.8234515002136,-117.880651554944
Anaheim Elementary,Henry (Patrick) Elementary,1123 West Romneya Drive Anaheim CA 92801-2109,NA,NA,FALSE,tested,Anaheim,Orange County,33.8508435888569,-117.933081448209
Orange Unified,Imperial Elementary,400 South Imperial Highway Anaheim CA 92807-3946,NA,NA,FALSE,tested,Anaheim,Orange County,33.84911,-117.790096
Anaheim Elementary,Jefferson (Thomas) Elementary,504 East South Street Anaheim CA 92805-5338,NA,NA,FALSE,tested,Anaheim,Orange County,33.8278108296081,-117.905902832531
Anaheim Elementary,Juarez (Benito) Elementary,841 South Sunkist Street Anaheim CA 92806-4716,NA,NA,FALSE,tested,Anaheim,Orange County,33.8185769,-117.8805862
Magnolia Elementary,Juliette Low,215 North Ventura Anaheim CA 92801-5167,NA,NA,FALSE,tested,Anaheim,Orange County,33.8338122660007,-117.9633717645
Anaheim Union High,Katella High,2200 East Wagner Avenue Anaheim CA 92806-4999,NA,NA,FALSE,tested,Anaheim,Orange County,33.825305,-117.889128166667
Anaheim Elementary,Key (Francis Scott),2000 West Ball Road Anaheim CA 92804,9.55,ppb,TRUE,tested,Anaheim,Orange County,33.817779,-117.9564226
Anaheim Elementary,Lincoln (Abraham) Elementary,1413 East Broadway Anaheim CA 92805-4214,NA,NA,FALSE,tested,Anaheim,Orange County,33.8367809416796,-117.898578704959
Anaheim Elementary,Loara Elementary,1601 West Broadway Anaheim CA 92802-1107,NA,NA,FALSE,tested,Anaheim,Orange County,33.829022,-117.937284
Anaheim Union High,Loara High,1765 West Cerritos Avenue Anaheim CA 92804-6198,NA,NA,FALSE,tested,Anaheim,Orange County,33.8101086,-117.9071353
Magnolia Elementary,Lord Baden-Powell,2911 Stonybrook Drive Anaheim CA 92804-3931,NA,NA,FALSE,tested,Anaheim,Orange County,33.8231172,-118.0015672
Anaheim Elementary,Madison (James) Elementary,1510 South Nutwood Street Anaheim CA 92804-6023,NA,NA,FALSE,tested,Anaheim,Orange County,33.810290204027,-117.950235
Anaheim Union High,Magnolia High,2450 West Ball Road Anaheim CA 92804-5298,NA,NA,FALSE,tested,Anaheim,Orange County,33.8177234223457,-117.970431713139
Anaheim Elementary,Mann (Horace) Elementary,600 West La Palma Avenue Anaheim CA 92801-2361,NA,NA,FALSE,tested,Anaheim,Orange County,33.8471705989522,-117.911909600128
Anaheim Elementary,Marshall (John) Elementary,2066 Falmouth Avenue Anaheim CA 92801-1751,NA,NA,FALSE,tested,Anaheim,Orange County,33.8482891,-117.9504495
Magnolia Elementary,Mattie Lou Maxwell,2613 West Orange Avenue Anaheim CA 92804-3201,NA,NA,FALSE,tested,Anaheim,Orange County,33.82624495,-117.977028402163
Orange Unified,Nohl Canyon Elementary,4100 East Nohl Ranch Road Anaheim CA 92807-3415,6.4,ppb,TRUE,tested,Anaheim,Orange County,33.837751,-117.825126
North Monterey County Unified,North Orange County ROP,385 North Muller Street Anaheim CA 92801-5456,NA,NA,FALSE,tested,Anaheim,Orange County,33.8383055441925,-117.95028354057
Anaheim Elementary,Olive Street Elementary,890 South Olive Street Anaheim CA 92805-5214,NA,NA,FALSE,tested,Anaheim,Orange County,33.8260590713005,-117.906637947517
Orange County Department of Education,Orange County Workforce Innovation High,505 North Euclid Street Anaheim CA 92805-5506,NA,NA,NA,not tested,Anaheim,Orange County,33.8378141623277,-117.941661015095
Anaheim Elementary,Orange Grove Elementary,1000 South Harbor Boulevard Anaheim CA 92805-5531,NA,NA,FALSE,tested,Anaheim,Orange County,33.82081745,-117.913749316252
Orange Unified,Orange Unified Pre-K SDC,5125 East Gerda Drive Anaheim CA 92807-3009,NA,NA,FALSE,tested,Anaheim,Orange County,33.85207335,-117.805482718513
Anaheim Union High,Orangeview Junior High,3715 West Orange Avenue Anaheim CA 92804-2899,5.2,ppb,TRUE,tested,Anaheim,Orange County,33.82644715,-118.013899235258
Anaheim Elementary,Palm Lane Elementary,1646 West Palm Lane Anaheim CA 92802-2007,NA,NA,FALSE,tested,Anaheim,Orange County,33.8160342271329,-117.94019727994
Orange County Department of Education,Placentia Education Center,5247 E Orangethorpe Avenue Anaheim CA 92807,NA,NA,NA,not tested,Anaheim,Orange County,33.8594939,-117.9184774
Anaheim Elementary,Price (Adelaide) Elementary,1516 West North Street Anaheim CA 92801-4332,5.2,ppb,TRUE,tested,Anaheim,Orange County,33.8407715870598,-117.936499601442
Anaheim Elementary,Revere (Paul) Elementary,140 West Guinida Lane Anaheim CA 92805-6507,NA,NA,FALSE,tested,Anaheim,Orange County,33.8141362579056,-117.908408666938
Placentia-Yorba Linda Unified,Rio Vista Elementary,310 North Rio Vista Street Anaheim CA 92806-3767,NA,NA,FALSE,tested,Anaheim,Orange County,33.843225,-117.871646387755
Anaheim Elementary,Roosevelt (Theodore) Elementary,1600 East Vermont Avenue Anaheim CA 92805-5628,6.85,ppb,TRUE,tested,Anaheim,Orange County,33.826925,-117.893047
Anaheim Elementary,Ross (Betsy) Elementary,535 South Walnut Street Anaheim CA 92802-1450,6.9,ppb,TRUE,tested,Anaheim,Orange County,33.8265689,-117.929578091355
Anaheim Union High,Savanna High,301 North Gilbert Street Anaheim CA 92801-5099,NA,NA,FALSE,tested,Anaheim,Orange County,33.835376,-117.967782
Anaheim Union High,South Junior High,2320 East South Street Anaheim CA 92806-4599,NA,NA,FALSE,tested,Anaheim,Orange County,33.8325773891954,-117.884507487358
Anaheim Elementary,Sunkist Elementary,500 North Sunkist Street Anaheim CA 92806-3052,NA,NA,FALSE,tested,Anaheim,Orange County,33.84602505,-117.879300733308
Anaheim Union High,Sycamore Junior High,1801 East Sycamore Street Anaheim CA 92805-3486,NA,NA,FALSE,tested,Anaheim,Orange County,33.84600545,-117.893652800385
Magnolia Elementary,Walt Disney,2323 West Orange Avenue Anaheim CA 92804-3474,NA,NA,FALSE,tested,Anaheim,Orange County,33.825075308995,-117.96466159995
Anaheim Union High,Western High,501 South Western Avenue Anaheim CA 92804-1699,11,ppb,TRUE,tested,Anaheim,Orange County,33.824514,-118.002234
Anaheim Elementary,Westmont Elementary,1525 West Westmont Drive Anaheim CA 92801-4736,NA,NA,FALSE,tested,Anaheim,Orange County,33.8376280767498,-117.935898925581
Placentia-Yorba Linda Unified,Woodsboro Elementary,7575 East Woodsboro Avenue Anaheim CA 92807-2441,NA,NA,FALSE,tested,Anaheim,Orange County,33.8685126320867,-117.772420878394
