district,schoolName,schoolAddress,medianResult,unit,lead,status,city,county,latitude,longitude
Private,Able Charter School,6515 Inglewood Ave Stockton CA 95207,NA,NA,FALSE,tested,Stockton,San Joaquin County,38.0101139,-121.31749576934
New Jerusalem Elementary,Acacia Elementary Charter,1016 East Bianchi Road Stockton CA 95210-3503,NA,NA,NA,not tested,Stockton,San Joaquin County,37.9967985106383,-121.292376787234
New Jerusalem Elementary,Acacia Middle Charter,1016 East Bianchi Rd Stockton CA 95210-3503,NA,NA,NA,not tested,Stockton,San Joaquin County,37.9967985106383,-121.292376787234
Stockton Unified,Adams Elementary,6402 Inglewood Avenue Stockton CA 95207-3829,NA,NA,FALSE,tested,Stockton,San Joaquin County,38.00923405,-121.3156258
Lodi Unified,Ansel Adams,9275 Glacier Point Drive Stockton CA 95212-3494,NA,NA,FALSE,tested,Stockton,San Joaquin County,38.03332195,-121.27565764704
Jefferson Elementary,Anthony C. Traina Elementary,4256 Windsong Drive Tracy CA 95377-8739,NA,NA,NA,not tested,Tracy,San Joaquin County,37.7002966874143,-121.443223463331
Tracy Joint Unified,Art Freiler,2421 West Lowell Avenue Tracy CA 95376-7300,NA,NA,FALSE,tested,Tracy,San Joaquin County,37.747026,-121.452133
Stockton Unified,Aspire APEX Academy,444 North American Street Stockton CA 95202-2129,9.5,ppb,TRUE,tested,Stockton,San Joaquin County,37.9583124489796,-121.284386244898
Lodi Unified,Aspire Benjamin Holt College Preparatory Academy,3201 East Morada Lane Stockton CA 95212-3110,NA,NA,FALSE,tested,Stockton,San Joaquin County,38.03706096,-121.274379434286
Lodi Unified,Aspire Benjamin Holt Middle School,3293 East Morada Lane Stockton CA 95212-3110,NA,NA,FALSE,tested,Stockton,San Joaquin County,38.03706648,-121.273373217143
Stockton Unified,Aspire Langston Hughes Academy,2050 West Lane Stockton CA 95205-3358,NA,NA,FALSE,tested,Stockton,San Joaquin County,37.9753154771185,-121.280097982333
Stockton Unified,Aspire Port City Academy,2040 West Lane Stockton CA 95205-2129,NA,NA,FALSE,tested,Stockton,San Joaquin County,37.9752194342165,-121.280058874305
Lodi Unified,Aspire River Oaks Charter,1801 Pyrenees Avenue Stockton CA 95210-5207,NA,NA,FALSE,tested,Stockton,San Joaquin County,38.02697,-121.292028
Stockton Unified,Aspire Rosa Parks Academy,1930 South D Street Stockton CA 95206-2489,NA,NA,FALSE,tested,Stockton,San Joaquin County,37.93895915,-121.252331220985
Manteca Unified,August Knodt Elementary,3939 EWS Woods Boulevard Stockton CA 95206-5231,NA,NA,FALSE,tested,Stockton,San Joaquin County,37.9061770389051,-121.303873088501
Manteca Unified,be.tech,2271 West Louise Ave Manteca CA 95337-8381,NA,NA,NA,not tested,Manteca,San Joaquin County,37.8124828,-121.256742175
Lodi Unified,Bear Creek High,10555 Thornton Road Stockton CA 95209-4100,NA,NA,FALSE,tested,Stockton,San Joaquin County,38.0518765044213,-121.351345929525
Lodi Unified,Beckman Elementary,2201 Scarborough Drive Lodi CA 95240-6600,NA,NA,FALSE,tested,Lodi,San Joaquin County,38.1056388499254,-121.280987619087
Lammersville Joint Unified,Bethany Elementary,570 Escuela Drive Mountain House CA 95391-2051,NA,NA,NA,not tested,NA,San Joaquin County,37.7730021,-121.549961063836
Manteca Unified,Brock Elliott Elementary,1110 Stonum Lane Manteca CA 95336-0032,NA,NA,FALSE,tested,Manteca,San Joaquin County,37.7856437346939,-121.239753714286
Lincoln Unified,Brookside,2962 Brookside Road Stockton CA 95219-7901,NA,NA,FALSE,tested,Stockton,San Joaquin County,37.9862896,-121.3548154
Stockton Unified,Business Leadership Academy,401 North San Joaquin Street Stockton CA 95202,NA,NA,NA,not tested,Stockton,San Joaquin County,37.95752055,-121.28890432739
Stockton Unified,Business Learning Academy,401 North San Joaquin Street Stockton CA 95202,NA,NA,FALSE,tested,Stockton,San Joaquin County,37.95752055,-121.28890432739
Manteca Unified,Calla High,130 South Austin Road Manteca CA 95336-9710,NA,NA,NA,not tested,Manteca,San Joaquin County,37.7743376,-121.1792834
Tracy Joint Unified,Central Elementary,1370 Parker Avenue Tracy CA 95376-3522,NA,NA,FALSE,tested,Tracy,San Joaquin County,37.7427832856646,-121.429752834121
Lodi Unified,Christa McAuliffe Middle,3880 Iron Canyon Circle Stockton CA 95209-3612,NA,NA,FALSE,tested,Stockton,San Joaquin County,38.0455588,-121.36621418987
Lincoln Unified,Claudia Landeen,4128 Feather River Drive Stockton CA 95219-6541,NA,NA,FALSE,tested,Stockton,San Joaquin County,37.9810199,-121.344327072519
Stockton Unified,Cleveland Elementary,20 East Fulton Street Stockton CA 95204-3339,NA,NA,FALSE,tested,Stockton,San Joaquin County,37.98234225,-121.302170252037
Lodi Unified,Clyde W. Needham Elementary,420 South Pleasant Avenue Lodi CA 95240-4033,NA,NA,FALSE,tested,Lodi,San Joaquin County,38.1288469464714,-121.276654061615
Lincoln Unified,Colonial Heights,8135 Balboa Avenue Stockton CA 95209-2920,NA,NA,NA,not tested,Stockton,San Joaquin County,38.0233715106383,-121.335231234043
Lodi Unified,Creekside Elementary,2515 Estate Drive Stockton CA 95209-1185,NA,NA,FALSE,tested,Stockton,San Joaquin County,38.0416968,-121.34906756598
New Jerusalem Elementary,Delta Bridges Charter,703 East Swain Road Stockton CA 95207-3146,NA,NA,NA,not tested,Stockton,San Joaquin County,38.00926075,-121.302151972438
Lodi Unified,Delta Sierra Middle,2255 Wagner Heights Road Stockton CA 95209-4700,NA,NA,FALSE,tested,Stockton,San Joaquin County,38.03591,-121.342532477936
Escalon Unified,Dent Elementary,1998 Yosemite Avenue Escalon CA 95320-1845,NA,NA,FALSE,tested,NA,San Joaquin County,37.798341,-120.989266
Tracy Joint Unified,Discovery Charter,51 East Beverly PL Tracy CA 95376-3191,NA,NA,NA,not tested,Tracy,San Joaquin County,37.7450641610738,-121.426560395973
Stockton Unified,District Special Education,1800 South Sutter Stockton CA 95206-2004,NA,NA,NA,not tested,Stockton,San Joaquin County,37.934458,-121.280625
Lincoln Unified,Don Riggio,3110 Brookside Road Stockton CA 95219-2357,NA,NA,FALSE,tested,Stockton,San Joaquin County,37.9765949482926,-121.351404684176
Stockton Unified,Dr. Lewis Dolphin Stallworth Sr. Charter,1610 East Main Street Stockton CA 95205-5521,NA,NA,NA,not tested,Stockton,San Joaquin County,37.9556848281388,-121.27004897378
Tracy Joint Unified,Earle E. Williams Middle,1600 Tennis Lane Tracy CA 95376-4017,NA,NA,FALSE,tested,Tracy,San Joaquin County,37.7316154027555,-121.445136165385
Manteca Unified,East Union High,1700 North Union Road Manteca CA 95336-9217,NA,NA,NA,not tested,Manteca,San Joaquin County,37.82307,-121.235662
Stockton Unified,El Dorado Elementary,1540 North Lincoln Street Stockton CA 95204-5617,NA,NA,FALSE,tested,Stockton,San Joaquin County,37.967066,-121.300836059311
Lodi Unified,Erma B. Reese Elementary,1800 West Elm Street Lodi CA 95242-2917,NA,NA,FALSE,tested,Lodi,San Joaquin County,38.136127,-121.295418
Escalon Unified,Escalon Charter Academy,1520 Yosemite Avenue Escalon CA 95320-1753,NA,NA,FALSE,tested,NA,San Joaquin County,37.7985314489796,-120.994298428571
Stockton Unified,Fillmore Elementary,2644 East Poplar Street Stockton CA 95205-4349,NA,NA,FALSE,tested,Stockton,San Joaquin County,37.9692206130163,-121.25617102686
Tracy Joint Unified,George Kelly Elementary,535 Mabel Josephine Drive Tracy CA 95377-6645,NA,NA,FALSE,tested,Tracy,San Joaquin County,37.7280606874209,-121.46247571853
Manteca Unified,George McParland Annex,1370 London Ave Manteca CA 95366,NA,NA,FALSE,tested,Manteca,San Joaquin County,37.8188273353497,-121.244568670909
Manteca Unified,George McParland Elementary,1601 Northgate Drive Manteca CA 95336-6255,NA,NA,FALSE,tested,Manteca,San Joaquin County,37.820393972973,-121.243567243243
Stockton Unified,George W. Bush Elementary,5420 Fred Russo Drive Stockton CA 95212-2862,NA,NA,FALSE,tested,Stockton,San Joaquin County,38.009674,-121.277429
Lodi Unified,George Washington Elementary,831 West Lockeford Street Lodi CA 95240-1633,NA,NA,FALSE,tested,Lodi,San Joaquin County,38.13831125,-121.283615125
Manteca Unified,George Y. Komure Elementary,2121 Henry Long Boulevard Stockton CA 95206-6166,NA,NA,FALSE,tested,Stockton,San Joaquin County,37.90414145,-121.31855629987
Tracy Joint Unified,Gladys Poet-Christian Elementary,1701 South Central Avenue Tracy CA 95376-4017,NA,NA,FALSE,tested,Tracy,San Joaquin County,37.7183108,-121.4288284
Manteca Unified,Golden West Elementary,1031 North Main Street Manteca CA 95336-3207,NA,NA,FALSE,tested,Manteca,San Joaquin County,37.8112879883243,-121.21716672297
Manteca Unified,Great Valley Annex Elementary,4550 Star Way Stockton CA 95206,NA,NA,FALSE,tested,Stockton,San Joaquin County,37.904536,-121.298239
Manteca Unified,Great Valley Elementary,4223 McDougald Boulevard Stockton CA 95206-6237,NA,NA,FALSE,tested,Stockton,San Joaquin County,37.906231,-121.295494
Stockton Unified,Grunsky Elementary,1550 North School Street Stockton CA 95205-3420,NA,NA,FALSE,tested,Stockton,San Joaquin County,37.9713869667162,-121.274369226746
Stockton Unified,Harrison Elementary,3203 Sanguinetti Lane Stockton CA 95209-2517,NA,NA,FALSE,tested,Stockton,San Joaquin County,37.9864555230769,-121.272629261538
Ripon Unified,Harvest High,729 West Main Street Ripon CA 95366-2320,NA,NA,NA,not tested,Ripon,San Joaquin County,37.7394851428571,-121.131177571429
Stockton Unified,Health Careers Academy,931 East Magnolia Street Stockton CA 95203-2243,NA,NA,FALSE,tested,Stockton,San Joaquin County,37.9644608,-121.2875379
Lodi Unified,Heritage Elementary,509 Eden Street Lodi CA 95240-4207,NA,NA,FALSE,tested,Lodi,San Joaquin County,38.127998039986,-121.262547320238
Stockton Unified,Jane Frederick High,1141 East Weber Avenue Stockton CA 95205-4916,NA,NA,FALSE,tested,Stockton,San Joaquin County,37.9561408,-121.276388633333
Jefferson Elementary,Jefferson,7500 West Linne Road Tracy CA 95304-9278,NA,NA,NA,not tested,Tracy,San Joaquin County,37.69503445,-121.396678909169
Lodi Unified,Joe Serna Jr. Charter,19 South Central Avenue Lodi CA 95240-3148,NA,NA,FALSE,tested,Lodi,San Joaquin County,38.133635125,-121.265516875
Stockton Unified,John C. Fremont Elementary,2021 East Flora Street Stockton CA 95205-4307,NA,NA,FALSE,tested,Stockton,San Joaquin County,37.9654229802496,-121.267554943417
San Joaquin County Office of Education,"John F. Cruikshank, Jr.",2707 Transworld Drive Stockton CA 95206-3948,NA,NA,NA,not tested,Stockton,San Joaquin County,37.906898750694,-121.22875362555
Stockton Unified,John Marshall Elementary,1141 Lever Boulevard Stockton CA 95206-2855,NA,NA,FALSE,tested,Stockton,San Joaquin County,37.9242758,-121.303564631902
Lincoln Unified,John McCandless Charter,1700 Porter Way Stockton CA 95207-4129,NA,NA,NA,not tested,Stockton,San Joaquin County,38.00260515,-121.331241160069
Lincoln Unified,John McCandless Riverbrook,4811 Riverbrook Drive Stockton CA 95219,NA,NA,FALSE,tested,Stockton,San Joaquin County,37.97879095,-121.366894366173
Lodi Unified,John Muir Elementary,2303 Whistler Way Stockton CA 95209-4157,NA,NA,FALSE,tested,Stockton,San Joaquin County,38.04915095,-121.343367388923
Lincoln Unified,John R. Williams,2450 Meadow Avenue Stockton CA 95207-1331,NA,NA,FALSE,tested,Stockton,San Joaquin County,38.018254,-121.3448941
Manteca Unified,"Joseph Widmer, Jr., Elementary",751 Stonebridge Lane Lathrop CA 95330-8928,NA,NA,NA,not tested,Lathrop,San Joaquin County,37.83762,-121.280408421081
Manteca Unified,Joshua Cowell Elementary,740 Pestana Avenue Manteca CA 95336-0032,NA,NA,FALSE,tested,Manteca,San Joaquin County,37.807386,-121.1891717
Lodi Unified,Julia Morgan Elementary,3777 A. G. Spanos Boulevard Stockton CA 95209-3780,NA,NA,FALSE,tested,Stockton,San Joaquin County,38.051071,-121.3580102
Stockton Unified,King Elementary,2640 East Lafayette Street Stockton CA 95205-5713,NA,NA,FALSE,tested,Stockton,San Joaquin County,37.9584957727273,-121.251233613636
Lodi Unified,Lakewood Elementary,1100 North Ham Lane Lodi CA 95242-2322,NA,NA,FALSE,tested,Lodi,San Joaquin County,38.14629,-121.288535
Manteca Unified,Lathrop High,647 West Lathrop Road Lathrop CA 95330-9770,NA,NA,NA,not tested,Lathrop,San Joaquin County,37.8263086,-121.2857326
Lodi Unified,Lawrence Elementary,721 Calaveras Street Lodi CA 95240-0628,NA,NA,FALSE,tested,Lodi,San Joaquin County,38.1428914630402,-121.265755981826
Lodi Unified,Leroy Nichols Elementary,1301 South Crescent Avenue Lodi CA 95240-6001,NA,NA,FALSE,tested,Lodi,San Joaquin County,38.117095,-121.2828063
Lodi Unified,Liberty High,660 West Walnut Street Lodi CA 95240-3437,NA,NA,FALSE,tested,Lodi,San Joaquin County,38.1312522244898,-121.281446734694
Manteca Unified,Lincoln Elementary,750 East Yosemite Avenue Manteca CA 95336-5827,NA,NA,FALSE,tested,Manteca,San Joaquin County,37.7973528571429,-121.206918857143
Lincoln Unified,Lincoln High,6844 Alexandria Place Stockton CA 95207-2401,NA,NA,FALSE,tested,Stockton,San Joaquin County,38.009208,-121.33915
Linden Unified,Linden Adult,18257 East Main Street Linden CA 95236,NA,NA,NA,not tested,NA,San Joaquin County,38.020074,-121.081185
Lodi Unified,Lockeford Elementary,19456 North Tully Road Lockeford CA 95237-9752,NA,NA,NA,not tested,NA,San Joaquin County,38.1608047873298,-121.147060112597
Lodi Unified,Lodi Adult,542 East Pine Street Lodi CA 95240-3034,NA,NA,FALSE,tested,Lodi,San Joaquin County,38.1340783877551,-121.262313316327
Lodi Unified,Lodi High,3 South Pacific Avenue Lodi CA 95242-3020,8.8,ppb,TRUE,tested,Lodi,San Joaquin County,38.13305705,-121.292012344811
Lodi Unified,Lodi Middle,945 South Ham Lane Lodi CA 95242-3822,5.6,ppb,TRUE,tested,Lodi,San Joaquin County,38.1221529543308,-121.288364551076
Lodi Unified,Lois E. Borchardt Elementary,375 Culbertson Drive Lodi CA 95240-8873,NA,NA,FALSE,tested,Lodi,San Joaquin County,38.1033436003618,-121.264988911595
Tracy Joint Unified,Louis J. Villalovoz Elementary,1550 Cypress Drive Tracy CA 95376-4017,NA,NA,FALSE,tested,Tracy,San Joaquin County,37.735099,-121.45146
Lincoln Unified,Mable Barron,6835 Cumberland Place Stockton CA 95219-3238,NA,NA,FALSE,tested,Stockton,San Joaquin County,38.0095308367347,-121.363333489796
Stockton Unified,Madison Elementary,2939 Mission Road Stockton CA 95204-4150,NA,NA,FALSE,tested,Stockton,San Joaquin County,37.9709455,-121.325127004135
Lodi Unified,Manlio Silva Elementary,6250 Scott Creek Drive Stockton CA 95219-7244,NA,NA,FALSE,tested,Stockton,San Joaquin County,38.0537937,-121.392914165913
Manteca Unified,Manteca Adult,2271 West Louise Avenue Manteca CA 95337,NA,NA,NA,not tested,Manteca,San Joaquin County,37.8124828,-121.256742175
Manteca Unified,Manteca Community Day (7-12),737 West Yosemite Avenue Manteca CA 95337-5403,NA,NA,NA,not tested,Manteca,San Joaquin County,37.797499,-121.226223666667
Manteca Unified,Manteca Community Day (K-6),737 West Yosemite Avenue Manteca CA 95337-5403,NA,NA,NA,not tested,Manteca,San Joaquin County,37.797499,-121.226223666667
Manteca Unified,Manteca High,450 East Yosemite Avenue Manteca CA 95336-5718,NA,NA,NA,not tested,Manteca,San Joaquin County,37.797339,-121.211058
Tracy Joint Unified,Melville S. Jacobson Elementary,1750 West Kavanagh Avenue Tracy CA 95376-0315,NA,NA,FALSE,tested,Tracy,San Joaquin County,37.7574024404083,-121.447404219863
Tracy Joint Unified,Merrill F. West High,1775 West Lowell Avenue Tracy CA 95376-2200,NA,NA,FALSE,tested,Tracy,San Joaquin County,37.7493293,-121.448512054641
Lodi Unified,Middle College High,5151 Pacific Avenue Stockton CA 95207-6370,NA,NA,NA,not tested,Stockton,San Joaquin County,37.9959603596652,-121.314647356982
Tracy Joint Unified,Millennium Charter,51 East Beverly Place Tracy CA 95376-3191,NA,NA,NA,not tested,Tracy,San Joaquin County,37.7450641610738,-121.426560395973
Lodi Unified,Millswood Middle,233 North Mills Ave Lodi CA 95242-2954,NA,NA,FALSE,tested,Lodi,San Joaquin County,38.1379181973684,-121.297431157895
Tracy Joint Unified,Monte Vista Middle,751 West Lowell Avenue Tracy CA 95376-2935,NA,NA,FALSE,tested,Tracy,San Joaquin County,37.7480249160021,-121.436611534492
Stockton Unified,Montezuma Elementary,2843 Farmington Road Stockton CA 95206-7845,NA,NA,FALSE,tested,Stockton,San Joaquin County,37.9384733021944,-121.242515020831
Jefferson Elementary,Monticello Elementary,1001 Cambridge Place Tracy CA 95377-7500,NA,NA,NA,not tested,Tracy,San Joaquin County,37.707201,-121.437799
Manteca Unified,Mossdale Elementary,455 Brookhurst Boulevard Lathrop CA 95330-8688,NA,NA,NA,not tested,Lathrop,San Joaquin County,37.80195315,-121.306306580197
Manteca Unified,New Vision High,4726 McCuen Avenue Stockton CA 95206-6397,7.9,ppb,TRUE,tested,Stockton,San Joaquin County,37.89811275,-121.307969036536
Banta Elementary,NextGeneration STEAM Academy,18001 Commercial Street Lathrop CA 95330-8543,NA,NA,NA,not tested,Lathrop,San Joaquin County,37.7967257,-121.3191383
Stockton Unified,Nightingale Charter,1721 Carpenter Road Stockton CA 95206-3809,NA,NA,FALSE,tested,Stockton,San Joaquin County,37.919154,-121.252937
Tracy Joint Unified,North Elementary,2875 Holly Drive Tracy CA 95376-2134,NA,NA,FALSE,tested,Tracy,San Joaquin County,37.757403173913,-121.426057086957
Lodi Unified,Oakwood Elementary,1315 Woodcreek Way Stockton CA 95209-2050,NA,NA,FALSE,tested,Stockton,San Joaquin County,38.0343862,-121.329101550142
San Joaquin County Office of Education,one.Charter,2707 Transworld Dr Stockton CA 95206-3948,NA,NA,NA,not tested,Stockton,San Joaquin County,37.906898750694,-121.22875362555
Stockton Unified,Pacific Law Academy,1621 Brookside Road Stockton CA 95207-7804,NA,NA,FALSE,tested,Stockton,San Joaquin County,37.9821033035082,-121.324112923148
Ripon Unified,Park View Elementary,751 Cindy Drive Ripon CA 95366-9443,NA,NA,NA,not tested,Ripon,San Joaquin County,37.7586810552764,-121.132180625628
Stockton Unified,Pittman Charter,701 East Park Street Stockton CA 95202-2207,NA,NA,FALSE,tested,Stockton,San Joaquin County,37.9610447647059,-121.284064411765
Lodi Unified,Plaza Robles Continuation High,9434 Thornton Road Stockton CA 95209-1263,NA,NA,FALSE,tested,Stockton,San Joaquin County,38.0360090624729,-121.339522500992
Lodi Unified,Podesta Ranch Elementary,9950 Windmill Park Drive Stockton CA 95209-4326,NA,NA,FALSE,tested,Stockton,San Joaquin County,38.0448388,-121.324907096652
Stockton Unified,Preschool Autism and Assessment Center,2455 Country Club Blvd. Stockton CA 95204,NA,NA,FALSE,tested,Stockton,San Joaquin County,37.9649334782351,-121.333549234943
Stockton Unified,Primary Years Academy,1540 N Lincoln Street Stockton CA 95204-2636,NA,NA,NA,not tested,Stockton,San Joaquin County,37.967066,-121.300836059311
Stockton Unified,Pulliam Elementary,230 Presidio Way Stockton CA 95207-2110,NA,NA,FALSE,tested,Stockton,San Joaquin County,38.0195224196218,-121.310814034948
Stockton Unified,Rio Calaveras Elementary,1819 East Bianchi Road Stockton CA 95210-6166,NA,NA,FALSE,tested,Stockton,San Joaquin County,38.00037255,-121.285380793745
Ripon Unified,Ripon Adult,304 North Acacia Avenue Ripon CA 95366-2404,NA,NA,NA,not tested,Ripon,San Joaquin County,37.7373930040819,-121.12866199988
Ripon Unified,Ripon Elementary,509 West Main Street Ripon CA 95366-2406,NA,NA,NA,not tested,Ripon,San Joaquin County,37.7394787346939,-121.12874022449
Ripon Unified,Ripon High,301 North Acacia Avenue Ripon CA 95366-2403,NA,NA,NA,not tested,Ripon,San Joaquin County,37.737427,-121.128661
Ripon Unified,Ripona Elementary,415 East Oregon Street Ripon CA 95366-2138,NA,NA,NA,not tested,Ripon,San Joaquin County,37.7434445116279,-121.119961209302
San Joaquin County Office of Education,River Islands Technology Academy II,1175 Marina Drive Lathrop CA 95330-8543,NA,NA,NA,not tested,Lathrop,San Joaquin County,37.7995458,-121.3188311
Lodi Unified,Ronald E. McNair High,9550 Ronald East McNair Way Stockton CA 95210-2800,NA,NA,FALSE,tested,Stockton,San Joaquin County,38.0416825,-121.2999666
San Joaquin County Office of Education,San Joaquin Building Futures Academy,3100 Monte Diablo Avenue Stockton CA 95203-1108,NA,NA,NA,not tested,Stockton,San Joaquin County,37.9545612,-121.342491074837
San Joaquin County ROP,San Joaquin County ROCP,2707 Transworld Stockton CA 95206-9030,NA,NA,NA,not tested,Stockton,San Joaquin County,37.906898750694,-121.22875362555
San Joaquin County Office of Education,San Joaquin County Special Education,2707 Transworld Dr. Stockton CA 95206-3948,NA,NA,NA,not tested,Stockton,San Joaquin County,37.906898750694,-121.22875362555
Stockton Unified,San Joaquin Elementary,2020 South Fresno Avenue Stockton CA 95206-4633,NA,NA,FALSE,tested,Stockton,San Joaquin County,37.9287304545455,-121.312026961039
Stockton Unified,School for Adults,1525 Pacific Ave. Stockton CA 95204,NA,NA,FALSE,tested,Stockton,San Joaquin County,38.0000922,-121.3162746
Lammersville Joint Unified,Sebastian Questa Elementary,543 North Montebello Street Mountain House CA 95391,NA,NA,NA,not tested,NA,San Joaquin County,37.7858341,-121.5518387
Manteca Unified,Sequoia Elementary,710 Martha Street Manteca CA 95337-5430,7.5,ppb,TRUE,tested,Manteca,San Joaquin County,37.7910986666667,-121.224973555556
Manteca Unified,Sierra High,1700 Thomas Street Manteca CA 95336-0032,NA,NA,NA,not tested,Manteca,San Joaquin County,37.793619,-121.24646
Lincoln Unified,Sierra Middle,6768 Alexandria Place Stockton CA 95207-3407,NA,NA,FALSE,tested,Stockton,San Joaquin County,38.00872145,-121.338737192173
Stockton Unified,Spanos (Alex G.) Elementary,536 South California Street Stockton CA 95203-3704,NA,NA,FALSE,tested,Stockton,San Joaquin County,37.9483984,-121.282639033869
Stockton Unified,Special Education Department,1800 S. Sutter St. Stockton CA 95206,NA,NA,FALSE,tested,Stockton,San Joaquin County,37.9340832,-121.280264040416
Stockton Unified,Stagg Senior High,1621 Brookside Rd. Stockton CA 95207-7804,NA,NA,FALSE,tested,Stockton,San Joaquin County,37.9821033035082,-121.324112923148
Manteca Unified,Stella Brockman Elementary,763 Silverado Drive Manteca CA 95336-0032,NA,NA,FALSE,tested,Manteca,San Joaquin County,37.8094113333333,-121.245440666667
Stockton Unified,Stockton Collegiate International Elementary,321 East Weber Avenue Stockton CA 95202-2707,NA,NA,NA,not tested,Stockton,San Joaquin County,37.95456945,-121.286867206203
Stockton Unified,Stockton High,22 South Van Buren Street Stockton CA 95202-3118,NA,NA,FALSE,tested,Stockton,San Joaquin County,37.9513283333333,-121.296093333333
Stockton Unified,Stockton Unified Early College Academy,349 East Vine Street Stockton CA 95202-1107,NA,NA,FALSE,tested,Stockton,San Joaquin County,37.9661582653061,-121.290045693878
Lincoln Unified,Sture Larsson High,1813 McClellan Way Stockton CA 95219,NA,NA,FALSE,tested,Stockton,San Joaquin County,38.0081835,-121.334852587102
Lodi Unified,Sutherland Elementary,550 Spring River Circle Stockton CA 95210-4479,NA,NA,FALSE,tested,Stockton,San Joaquin County,38.0343438,-121.306205656746
Stockton Unified,Taft Elementary,419 Downing Avenue Stockton CA 95206-3743,NA,NA,FALSE,tested,Stockton,San Joaquin County,37.9139460967742,-121.284198612903
Stockton Unified,Taylor Leadership Academy,1101 Lever Boulevard Stockton CA 95206-2855,NA,NA,FALSE,tested,Stockton,San Joaquin County,37.9236994,-121.301282738623
Stockton Unified,TEAM Charter,600 East Main Street Stockton CA 95202-3029,NA,NA,NA,not tested,Stockton,San Joaquin County,37.953748,-121.283094
Jefferson Elementary,Tom Hawkins Elementary,475 Darlene Lane Tracy CA 95377-7039,NA,NA,NA,not tested,Tracy,San Joaquin County,37.7053261,-121.419474741247
Tracy Joint Unified,Tracy Adult,1902 Corral Hollow Road Tracy CA 95376-4017,NA,NA,NA,not tested,Tracy,San Joaquin County,37.74954898,-121.45310475
Tracy Joint Unified,Tracy High,315 East 11th Street Tracy CA 95376-4017,NA,NA,FALSE,tested,Tracy,San Joaquin County,37.7397097,-121.4238381
Lincoln Unified,Tully C. Knoles,6511 Clarksburg Place Stockton CA 95207-3222,NA,NA,NA,not tested,Stockton,San Joaquin County,38.00280981954,-121.344412772266
Stockton Unified,Valentine Peyton Elementary,2525 Gold Brook Dr Stockton CA 95212-2825,NA,NA,FALSE,tested,Stockton,San Joaquin County,38.0013813,-121.2722688464
San Joaquin County Office of Education,Venture Academy,2829 Transworld Drive Stockton CA 95206-3950,NA,NA,FALSE,tested,Stockton,San Joaquin County,37.9076065008119,-121.230580248738
Manteca Unified,Veritas Elementary,1600 Pagola Street Manteca CA 95337-8603,NA,NA,FALSE,tested,Manteca,San Joaquin County,37.7744779,-121.230803
Lodi Unified,Victor Elementary,17670 North Bruella Road Victor CA 95253-9999,7.15,ppb,TRUE,tested,NA,San Joaquin County,38.1432260909608,-121.205965498471
Stockton Unified,Victory Elementary,1838 West Rose Street Stockton CA 95203-1406,NA,NA,FALSE,tested,Stockton,San Joaquin County,37.95956305,-121.320352736876
Lincoln Unified,Village Oaks High School,1900 West Swain Stockton CA 95207-3439,NA,NA,NA,not tested,Stockton,San Joaquin County,38.0007296702058,-121.333614188091
Lodi Unified,Vinewood Elementary,1600 West Tokay Street Lodi CA 95242-3435,NA,NA,FALSE,tested,Lodi,San Joaquin County,38.126334,-121.29345000000001
Escalon Unified,Vista High (Continuation),1520 Yosemite Ave. Escalon CA 95320-1753,NA,NA,FALSE,tested,NA,San Joaquin County,37.7985314489796,-120.994298428571
Lodi Unified,Wagner-Holt Elementary,8778 Brattle Place Stockton CA 95209-4850,NA,NA,FALSE,tested,Stockton,San Joaquin County,38.02930495,-121.352830709892
Manteca Unified,Walter Woodward Elementary,575 Tannehill Drive Manteca CA 95337-8709,NA,NA,FALSE,tested,Manteca,San Joaquin County,37.7694658332224,-121.208538237193
Tracy Joint Unified,Wanda Hirsch Elementary,1280 Dove Drive Tracy CA 95376-8362,NA,NA,FALSE,tested,Tracy,San Joaquin County,37.7153047959184,-121.441109571429
Stockton Unified,Weber Institute,302 West Weber Avenue Stockton CA 95203-3124,NA,NA,FALSE,tested,Stockton,San Joaquin County,37.9527490382889,-121.295209142036
Ripon Unified,Weston Elementary,1660 Stanley Drive Ripon CA 95366-3200,NA,NA,NA,not tested,Ripon,San Joaquin County,37.7336148720332,-121.143670503065
Manteca Unified,Weston Ranch High,4606 McCuen Avenue Stockton CA 95206-6388,NA,NA,FALSE,tested,Stockton,San Joaquin County,37.9016679,-121.30707460187
Lodi Unified,Westwood Elementary,9444 Caywood Drive Stockton CA 95210-1500,NA,NA,FALSE,tested,Stockton,San Joaquin County,38.0354021632653,-121.290141244898
Tracy Joint Unified,Willow Community Day,164 West Grant Line Road Tracy CA 95376-2614,NA,NA,NA,not tested,Tracy,San Joaquin County,37.7541740918367,-121.426650918367
Stockton Unified,Wilson Elementary,150 East Mendocino Avenue Stockton CA 95204-3400,NA,NA,FALSE,tested,Stockton,San Joaquin County,37.978805244898,-121.29802122449
Lodi Unified,Woodbridge,1290 Lilac Street Lodi CA 95242-9127,NA,NA,FALSE,tested,Lodi,San Joaquin County,38.1503371389826,-121.304734639655
