district,schoolName,schoolAddress,medianResult,unit,lead,status,city,county,latitude,longitude
Selma Unified,Abraham Lincoln Middle,1239 Nelson Boulevard Selma CA 93662-4112,NA,NA,FALSE,tested,Selma,Fresno County,36.5838525652174,-119.600500869565
Fresno Unified,Addams Elementary,2117 West McKinley Avenue Fresno CA 93728-1125,NA,NA,FALSE,tested,Fresno,Fresno County,36.7645915196615,-119.835802308615
Fresno Unified,Ahwahnee Middle,1127 East Escalon Avenue Fresno CA 93710-5510,10.9,ppb,TRUE,tested,Fresno,Fresno County,36.8267282548154,-119.768225928552
Clovis Unified,Alta Sierra Intermediate,380 West Teague Avenue Clovis CA 93611-8332,NA,NA,FALSE,tested,Clovis,Fresno County,36.8599167337821,-119.718405204131
Alvina Elementary,Alvina Elementary Charter,295 West Saginaw Avenue Caruthers CA 93609-9710,NA,NA,NA,not tested,NA,Fresno County,36.554148,-119.880976
Selma Unified,Andrew Jackson Elementary,2220 Huntsman Avenue Selma CA 93662-2422,NA,NA,FALSE,tested,Selma,Fresno County,36.5835526915413,-119.614279721343
Fresno Unified,Ann B. Leavenworth,4420 East Thomas Avenue Fresno CA 93702-1441,NA,NA,NA,not tested,Fresno,Fresno County,36.7531069591837,-119.751619734694
Private,Armenian Community School,108 North Villa Avenue Clovis CA 93612,NA,NA,FALSE,tested,Clovis,Fresno County,36.8323259184902,-119.713622163044
Firebaugh-Las Deltas Unified,Arthur E. Mills Intermediate,1191 P Street Firebaugh CA 93622-2230,NA,NA,NA,not tested,NA,Fresno County,36.8595003012548,-120.455154764049
Fresno Unified,Aspen Valley Prep Academy,4221 N. Hughes Avenue Fresno CA 93705,NA,NA,FALSE,tested,Fresno,Fresno County,36.7943634024524,-119.835448916242
Fresno Unified,Ayer Elementary,5272 East Lowe Avenue Fresno CA 93727-5216,NA,NA,FALSE,tested,Fresno,Fresno County,36.731301,-119.717127183489
Fresno Unified,Aynesworth Elementary,4765 East Burns Avenue Fresno CA 93725-1732,NA,NA,FALSE,tested,Fresno,Fresno County,36.712435896814704,-119.737709251362
Fresno Unified,Baird Middle,5500 North Maroa Avenue Fresno CA 93704-2005,6.5,ppb,TRUE,tested,Fresno,Fresno County,36.8177963965602,-119.799274044158
Fresno County Office of Education,Beth Ramacher Educational Complex,710 N. Hughes Avenue Fresno CA 93728,5.5,ppb,TRUE,tested,Fresno,Fresno County,36.7521083784634,-119.835404143054
Fresno County Office of Education,Big Picture Educational Academy,1207 South Trinity Street Fresno CA 93706-2611,NA,NA,NA,not tested,Fresno,Fresno County,36.7306251419714,-119.808531568117
Central Unified,Biola-Pershing Elementary,4885 North Biola Avenue Fresno CA 93723-9428,NA,NA,NA,not tested,NA,Fresno County,36.8055416659774,-120.01665602462
Fresno Unified,Birney Elementary,3034 East Cornell Avenue Fresno CA 93703-1231,NA,NA,FALSE,tested,Fresno,Fresno County,36.77682885,-119.773736747691
Clovis Unified,Buchanan High,1560 North Minnewawa Avenue Clovis CA 93611-7698,NA,NA,FALSE,tested,Clovis,Fresno County,36.8468604,-119.7110909
Clovis Unified,Bud Rank Elementary,3650 Powers Avenue Clovis CA 93619-5900,NA,NA,FALSE,tested,Clovis,Fresno County,36.8627185948239,-119.641996679759
Fresno Unified,Bullard High,5445 North Palm Avenue Fresno CA 93704-1941,NA,NA,FALSE,tested,Fresno,Fresno County,36.8164933302168,-119.808476970478
Fresno Unified,Burroughs Elementary,166 North Sierra Vista Avenue Fresno CA 93702-2647,NA,NA,FALSE,tested,Fresno,Fresno County,36.7446112507499,-119.740795912415
Fresno Unified,Calwa Elementary,4303 East Jensen Avenue Fresno CA 93725-2105,NA,NA,FALSE,tested,Fresno,Fresno County,36.7070051605321,-119.753368788448
Coalinga-Huron Unified,Cambridge High,516 Baker Street Coalinga CA 93210-2927,NA,NA,NA,not tested,Coalinga,Fresno County,36.1451568367347,-120.359921408163
Fresno County Office of Education,Career Technical Education Charter High School at Kermit Kootz Education Complex,1320 Mariposa Street  Fresno CA 93703,NA,NA,FALSE,tested,Fresno,Fresno County,36.7304465714286,-119.797282734694
Fresno Unified,Carter G. Woodson Public Charter,3333 North Bond Avenue Fresno CA 93726-5712,NA,NA,FALSE,tested,Fresno,Fresno County,36.7808243038652,-119.768033733242
Fresno Unified,Carter G. Woodson Public Charter Satellite Campus,4880 N. First Street Fresno CA 93726,NA,NA,FALSE,tested,Fresno,Fresno County,36.8461871,-119.7746833
Clovis Unified,Cedarwood Elementary,2851 Palo Alto Avenue Clovis CA 93611-6831,NA,NA,FALSE,tested,Clovis,Fresno County,36.8342590538382,-119.66218458364
Fresno Unified,Centennial Elementary,3830 East Saginaw Way Fresno CA 93726-5126,NA,NA,FALSE,tested,Fresno,Fresno County,36.7885823701767,-119.760320529733
Clovis Unified,Center for Advanced Research & Technology,2555 Clovis Ave. Clovis CA 93612,NA,NA,FALSE,tested,Clovis,Fresno County,36.8039640439698,-119.700176251805
Central Unified,Central High East Campus,3535 North Cornelia Avenue Fresno CA 93722-7020,NA,NA,FALSE,tested,Fresno,Fresno County,36.7874329047619,-119.88048
Clovis Unified,Century Elementary,965 North Sunnyside Avenue Clovis CA 93611-8171,NA,NA,FALSE,tested,Clovis,Fresno County,36.8181449504339,-119.690814953157
Parlier Unified,Cesar E Chavez Elementary,500 Tuolumne St Parlier CA 93648-2648,NA,NA,FALSE,tested,Parlier,Fresno County,36.608246,-119.524605
Coalinga-Huron Unified,Chestnut High (Continuation) School,16673 Palmer Avenue Huron CA 93234,NA,NA,FALSE,tested,Huron,Fresno County,36.210305,-120.097264833333
Kings Canyon Joint Unified,Citrus Middle,1400 Anchor Avenue Orange Cove CA 93646-2111,NA,NA,NA,not tested,Orange Cove,Fresno County,36.624646,-119.3226594
State Center Community College District,Clovis Community College Child Development Center Lab School,10309 N. Willow Ave. Clovis CA 93619,NA,NA,FALSE,tested,Clovis,Fresno County,36.8399639,-119.7295394
Clovis Unified,Clovis Community Day Elementary,1665 David East Cook Way Clovis CA 93611-0581,NA,NA,FALSE,tested,Clovis,Fresno County,36.8364409489826,-119.687772299436
Clovis Unified,Clovis Community Day Secondary,1655 David East Cook Way Clovis CA 93611-0581,NA,NA,FALSE,tested,Clovis,Fresno County,36.8364393403843,-119.687887098431
Clovis Unified,Clovis Elementary,1100 Armstrong Avenue Clovis CA 93611-7428,NA,NA,FALSE,tested,Clovis,Fresno County,36.817968,-119.673061
Clovis Unified,Clovis High,1055 Fowler Avenue Clovis CA 93611-2062,9.7,ppb,TRUE,tested,Clovis,Fresno County,36.817204785116,-119.68205848564
Clovis Unified,Clovis North High,2770 East International Avenue Fresno CA 93730-5400,NA,NA,FALSE,tested,Fresno,Fresno County,36.8896283,-119.7329452
Clovis Unified,Clovis Online Charter,1655 David E Cook Way Clovis CA 93611-0581,7.9,ppb,TRUE,tested,Clovis,Fresno County,36.8364393403843,-119.687887098431
Clovis Unified,Clovis West High,1070 East Teague Avenue Fresno CA 93720-1899,13,ppb,TRUE,tested,Clovis,Fresno County,36.8591244619029,-119.764895850876
Coalinga-Huron Unified,Coalinga Middle,265 Cambridge Avenue Coalinga CA 93210-1255,NA,NA,NA,not tested,Coalinga,Fresno County,36.1509138222222,-120.360723088889
Clovis Unified,Cole Elementary,615 West Stuart Avenue Clovis CA 93612-0710,5.2,ppb,TRUE,tested,Clovis,Fresno County,36.824746667385,-119.723032500362
Fresno Unified,Columbia Elementary,1025 South Trinity Street Fresno CA 93706-2608,NA,NA,FALSE,tested,Fresno,Fresno County,36.733269020202,-119.808483515152
Sanger Unified,Community Day,818 L Street Sanger CA 93657-3201,NA,NA,FALSE,tested,Sanger,Fresno County,36.7051315118322,-119.554013028955
Fresno Unified,Cooper Middle,2277 West Bellaire Way Fresno CA 93705-1736,5.7,ppb,TRUE,tested,Fresno,Fresno County,36.7918144808843,-119.837139320141
Clovis Unified,Copper Hills Elementary,1881 East Plymouth Avenue Fresno CA 93720-4269,NA,NA,FALSE,tested,Fresno,Fresno County,36.8780008,-119.7467437
Clovis Unified,Cox Elementary,2191 Sierra Avenue Clovis CA 93611-0659,NA,NA,FALSE,tested,Clovis,Fresno County,36.8303251816787,-119.673789819789
Fresno Unified,David L. Greenberg Elementary,5081 East Lane Avenue Fresno CA 93727-4838,NA,NA,FALSE,tested,Fresno,Fresno County,36.7318288941676,-119.720558777445
Fresno Unified,Del Mar Elementary,4122 North Del Mar Avenue Fresno CA 93704-4410,7.05,ppb,TRUE,tested,Fresno,Fresno County,36.7934031474186,-119.794914172922
Fresno Unified,Design Science Early College High,2004 East Cambridge Avenue Fresno CA 93703-2119,NA,NA,FALSE,tested,Fresno,Fresno County,36.769466,-119.788044306107
Clovis Unified,Dry Creek Elementary,1273 North Armstrong Avenue Clovis CA 93619-4203,12,ppb,TRUE,tested,Clovis,Fresno County,36.8475696,-119.6750759
Fresno Unified,Easterby Elementary,5211 East Tulare Street Fresno CA 93727-4048,NA,NA,FALSE,tested,Fowler,Fresno County,36.6264556,-119.6745489
Fresno Unified,Eaton Elementary,1451 East Sierra Avenue Fresno CA 93710-4313,NA,NA,FALSE,tested,Fresno,Fresno County,36.8301614866962,-119.762361448981
Fresno Unified,Edison Computech,555 East Belgravia Fresno CA 93706-4806,NA,NA,FALSE,tested,Fresno,Fresno County,36.7160182990994,-119.805325800378
Fresno Unified,Edison High,540 East California Avenue Fresno CA 93706-3736,NA,NA,FALSE,tested,Fresno,Fresno County,36.7212901977689,-119.806014444476
Fresno Unified,Edith B. Storey Elementary,5250 East Church Avenue Fresno CA 93725-0900,NA,NA,FALSE,tested,Fresno,Fresno County,36.714806755102,-119.713570857143
Central Unified,El Capitan Middle,4443 West Weldon Avenue Fresno CA 93722-5440,NA,NA,FALSE,tested,Fresno,Fresno County,36.768103,-119.873168441512
Firebaugh-Las Deltas Unified,El Puente High,1691 Saipan Avenue Firebaugh CA 93622-2465,NA,NA,NA,not tested,NA,Fresno County,36.8524357152147,-120.449091527395
Clovis Unified,Enterprise Alternative,1550 Herndon Avenue Clovis CA 93611-0569,NA,NA,NA,not tested,Clovis,Fresno County,36.8373882941176,-119.687550333333
Kerman Unified,Enterprise High,15405 Sunset Avenue Kerman CA 93630-1345,NA,NA,NA,not tested,Kerman,Fresno County,36.7301081,-120.0728792
Selma Unified,Eric White Elementary,2001 Mitchell Selma CA 93662-9601,NA,NA,FALSE,tested,Selma,Fresno County,36.561768,-119.624356
Fresno Unified,Ericson Elementary,4774 East Yale Avenue Fresno CA 93703-2722,NA,NA,FALSE,tested,Fresno,Fresno County,36.770342556038,-119.738279611123
Fresno Unified,Erma Duncan Polytechnical High,4330 East Garland Avenue Fresno CA 93726-6102,7.55,ppb,TRUE,tested,Fresno,Fresno County,36.7849339344319,-119.752876727205
Fresno Unified,Ewing Elementary,4873 East Olive Avenue Fresno CA 93727-1810,NA,NA,FALSE,tested,Fresno,Fresno County,36.7575720323255,-119.73319324092
Fresno Unified,Ezekiel Balderas Elementary,4625 East Florence Avenue Fresno CA 93725-1110,NA,NA,FALSE,tested,Fresno,Fresno County,36.7176975020428,-119.743935166768
Clovis Unified,Fancher Creek Elementary,5948 East Tulare Avenue Fresno CA 93727-3575,NA,NA,FALSE,tested,Fresno,Fresno County,36.7434734897959,-119.683403979592
Fresno Unified,Figarden Elementary,6235 North Brawley Avenue Fresno CA 93722-9723,10,ppb,TRUE,tested,Fresno,Fresno County,36.8272903432851,-119.862578227673
Riverdale Joint Unified,Fipps Primary,21320 South Feland Riverdale CA 93656,NA,NA,NA,not tested,NA,Fresno County,36.4270240304188,-119.855493192015
Firebaugh-Las Deltas Unified,Firebaugh Community Day,1666 Saipan Avenue Firebaugh CA 93622-2438,NA,NA,NA,not tested,NA,Fresno County,36.8524966984251,-120.447793723426
Firebaugh-Las Deltas Unified,Firebaugh High,1976 Morris Kyle Drive Firebaugh CA 93622-9711,NA,NA,NA,not tested,NA,Fresno County,36.846858474718,-120.44934759258
Firebaugh-Las Deltas Unified,Firebaugh Middle,1600 16th Street Firebaugh CA 93622-2407,NA,NA,NA,not tested,NA,Fresno County,36.854198,-120.449943
Firebaugh-Las Deltas Unified,Firebaugh-Las Deltas Adult,1976 Morris Kyle Dr. Firebaugh CA 93622-9711,NA,NA,NA,not tested,NA,Fresno County,36.846858474718,-120.44934759258
Fresno Unified,Florence E. Rata,1373 West Mesa Avenue Fresno CA 93711-2098,NA,NA,NA,not tested,Fresno,Fresno County,36.8245678987521,-119.816645409231
Fresno Unified,Forkner Elementary,7120 North Valentine Avenue Fresno CA 93711-0644,NA,NA,FALSE,tested,Fresno,Fresno County,36.8388408762459,-119.856391408356
Fresno Unified,Fort Miller Middle,1302 East Dakota Avenue Fresno CA 93704-4441,5.9,ppb,TRUE,tested,Fresno,Fresno County,36.7866882684312,-119.795815376097
Clovis Unified,Fort Washington Elementary,960 East Teague Avenue Fresno CA 93720-1704,NA,NA,FALSE,tested,Fresno,Fresno County,36.8592761211935,-119.766602724588
Fowler Unified,Fowler Academy Continuation,975 E. Adams Avenue Fowler CA 93625-2702,NA,NA,NA,not tested,Fowler,Fresno County,36.6344261020408,-119.667679265306
Fowler Unified,Fowler High,701 East Main Street Fowler CA 93625-2423,NA,NA,NA,not tested,Fowler,Fresno County,36.6334128,-119.670522944684
Clovis Unified,Freedom Elementary,2955 Gettysburg Avenue Clovis CA 93611-3954,NA,NA,FALSE,tested,Clovis,Fresno County,36.8012385,-119.6979257
State Center Community College District,Fresno City College Child Development Center,1621 E. University Ave. Fresno CA 93703,NA,NA,FALSE,tested,Fresno,Fresno County,36.7668961161428,-119.791697214651
Fresno Unified,Fresno High,1839 Echo Avenue Fresno CA 93704-6047,NA,NA,FALSE,tested,Fresno,Fresno County,36.7757655,-119.85422
Clovis Unified,Garfield Elementary,1315 North Peach Avenue Clovis CA 93611-8342,NA,NA,FALSE,tested,Clovis,Fresno County,36.8147242084486,-119.718747993772
Clovis Unified,Gateway High (Continuation),1550 Herndon Ave. Clovis CA 93611-0598,NA,NA,FALSE,tested,Clovis,Fresno County,36.8373882941176,-119.687550333333
Kings Canyon Joint Unified,General Grant Middle,360 North East Avenue Reedley CA 93654-2510,NA,NA,FALSE,tested,Reedley,Fresno County,36.5996659354572,-119.444151999958
Clovis Unified,Gettysburg Elementary,2100 Gettysburg Avenue Clovis CA 93611-5254,NA,NA,FALSE,tested,Clovis,Fresno County,36.801137,-119.675715
Fresno Unified,Gibson Elementary,1266 West Barstow Avenue Fresno CA 93711-3129,NA,NA,FALSE,tested,Fresno,Fresno County,36.8156720426909,-119.814007814995
Central Unified,Glacier Point Middle,4055 North Bryan Avenue Fresno CA 93723-9212,NA,NA,FALSE,tested,Fresno,Fresno County,36.7956427959184,-119.907504673469
Kerman Unified,Goldenrod Elementary,445 South Goldenrod Avenue Kerman CA 93630-9212,NA,NA,NA,not tested,Kerman,Fresno County,36.7291818001435,-120.042478938477
Clovis Unified,Granite Ridge Intermediate,2770 East International Ave Fresno CA 93730-5400,NA,NA,FALSE,tested,Fresno,Fresno County,36.8896283,-119.7329452
Fresno Unified,Hamilton Elementary,102 East Clinton Fresno CA 93704-5315,NA,NA,FALSE,tested,Fresno,Fresno County,36.7720109346012,-119.812534142637
Central Unified,Hanh Phan Tilley Elementary,2280 North Valentine Avenue Fresno CA 93722-5553,NA,NA,FALSE,tested,Fresno,Fresno County,36.7697193728653,-119.853211738348
Central Unified,Harvest Elementary,6514 West Gettysburg Avenue Fresno CA 93723-3013,NA,NA,FALSE,tested,Fresno,Fresno County,36.800704,-119.9074395
Firebaugh-Las Deltas Unified,Hazel M. Bailey Primary,1691 Q Street Firebaugh CA 93622-9711,NA,NA,NA,not tested,NA,Fresno County,36.8622087,-120.4566822
Selma Unified,Hearland Alternative School,2269 Sylvia Street Selma CA 93662-3436,NA,NA,NA,not tested,Selma,Fresno County,36.5696121912909,-119.619009185364
Selma Unified,Heartland High (Continuation),2269 Sylvia St Selma CA 93662-3488,NA,NA,FALSE,tested,Selma,Fresno County,36.5696121912909,-119.619009185364
Golden Plains Unified,Helm Elementary,13883 South Lassen Avenue Helm CA 93627-9900,NA,NA,NA,not tested,NA,Fresno County,36.53315055,-120.099579153673
Fresno Unified,Herbert Hoover High,5550 North First Street Fresno CA 93710-6201,NA,NA,FALSE,tested,Fresno,Fresno County,36.8461871,-119.7746833
Central Unified,Herndon-Barstow Elementary,6265 North Grantland Avenue Fresno CA 93723-9334,NA,NA,FALSE,tested,Fresno,Fresno County,36.8269033333638,-119.916656235772
Fresno Unified,Holland Elementary,4676 North Fresno Street Fresno CA 93726-0349,NA,NA,FALSE,tested,Fresno,Fresno County,36.8024214684897,-119.781272346131
Fresno County Office of Education,Hume Lake Charter,64144 Hume Lake Road Hume CA 93628-9602,NA,NA,NA,not tested,NA,Fresno County,36.7873039,-118.91771315
Coalinga-Huron Unified,Huron Elementary,36131 N Street Huron CA 93234,NA,NA,FALSE,tested,Huron,Fresno County,36.2013075,-120.096658
Fresno Unified,Irwin O. Addicott Elementary,2727 North Cedar Avenue Fresno CA 93703-2016,NA,NA,FALSE,tested,Fresno,Fresno County,36.7753945415038,-119.754330470299
Fresno Unified,J. E. Young Academic Center,822 North Abby Street Fresno CA 93701-1002,NA,NA,NA,not tested,Fresno,Fresno County,36.7538064895081,-119.789113612657
Fresno Unified,Jackson Elementary,3750 East Platt Avenue Fresno CA 93702-2800,NA,NA,FALSE,tested,Fresno,Fresno County,36.7417399449209,-119.76185210201
Selma Unified,James Garfield Elementary,2535 B Street Selma CA 93662-3108,NA,NA,FALSE,tested,Selma,Fresno County,36.5710718370399,-119.608623971605
Central Unified,James K. Polk Elementary,2195 North Polk Avenue Fresno CA 93722-5052,NA,NA,FALSE,tested,Fresno,Fresno County,36.7739235,-119.8892333
Clovis Unified,James S. Fugman Elementary,10825 N Cedar Ave Fresno CA 93730-3586,NA,NA,FALSE,tested,Fresno,Fresno County,36.8924450612245,-119.756516040816
Fresno Unified,Jefferson Elementary,202 North Mariposa Street Fresno CA 93701-2425,NA,NA,FALSE,tested,Fresno,Fresno County,36.7451019991856,-119.779145466653
Kings Canyon Joint Unified,Jefferson Elementary,1037 East Duff Avenue Reedley CA 93654-3505,NA,NA,FALSE,tested,Reedley,Fresno County,36.5932020984581,-119.438632233799
Clovis Unified,Jefferson Elementary,1880 Fowler Avenue Clovis CA 93611-3069,NA,NA,FALSE,tested,Clovis,Fresno County,36.8106966,-119.6820498
KCUSD,Jefferson Preschool,1269 E. Washington Ave Reedley CA 93654,NA,NA,FALSE,tested,Reedley,Fresno County,36.5913631964106,-119.435782003227
Parlier Unified,John C Martinez Elementary,13174 East Parlier Avenue Parlier CA 93648-2227,NA,NA,FALSE,tested,Parlier,Fresno County,36.614405,-119.553073625
Sanger Unified,John S. Wash Elementary,6350 East Lane Avenue Fresno CA 93727-5734,NA,NA,FALSE,tested,Fresno,Fresno County,36.7333318287666,-119.675720166214
Central Unified,John Steinbeck Elementary,3550 North Milburn Avenue Fresno CA 93722-7016,NA,NA,FALSE,tested,Fresno,Fresno County,36.7885704934029,-119.875935817181
Fowler Unified,John Sutter Middle,701 East Walter Fowler CA 93625-9792,NA,NA,NA,not tested,Fowler,Fresno County,36.6307751380221,-119.670124609454
Clovis Unified,Kastner Intermediate,7676 North First Street Fresno CA 93720-0953,NA,NA,FALSE,tested,Fresno,Fresno County,36.8461871,-119.7746833
Kings Canyon Joint Unified,KC KIDS Pre-School,1220 East Washington Avenue Reedley CA 93654-3595,NA,NA,FALSE,tested,Reedley,Fresno County,36.591369149497,-119.436285996175
Fresno Unified,Kepler Neighborhood,1537 Fulton Street Fresno CA 93721-1611,NA,NA,NA,not tested,Fresno,Fresno County,36.7392054296687,-119.796077022303
Fresno Unified,Kepler Neighborhood School,1462 Broadway Fresno CA 93721,NA,NA,FALSE,tested,Fresno,Fresno County,36.7378298294588,-119.796093423472
Kerman Unified,Kerman-Floyd Elementary,14655 West F Street Kerman CA 93630-1816,NA,NA,NA,not tested,Kerman,Fresno County,36.7254864926227,-120.055750908688
Fresno Unified,King Elementary,1001 East Florence Avenue Fresno CA 93706-4236,NA,NA,FALSE,tested,Fresno,Fresno County,36.7178877676679,-119.799243839175
Fresno Unified,Kings Canyon Middle,5117 East Tulare Street Fresno CA 93727-3999,NA,NA,FALSE,tested,Fowler,Fresno County,36.6264556,-119.6745489
Kingsburg Joint Union High,Kingsburg High,1900 18th Avenue Kingsburg CA 93631-1629,NA,NA,FALSE,tested,NA,Fresno County,36.517983,-119.54778
Kingsburg Joint Union High,Kingsburg Independent Study High,2311 Sierra Street Kingsburg CA 93631-1457,NA,NA,NA,not tested,NA,Fresno County,36.5179804,-119.5579329
Fresno Unified,Kirk Elementary,2000 East Belgravia Avenue Fresno CA 93706-4416,NA,NA,FALSE,tested,Fresno,Fresno County,36.715914,-119.787226
Fresno Unified,Kratt Elementary,650 West Sierra Avenue Fresno CA 93704-1051,NA,NA,NA,not tested,Fresno,Fresno County,36.8301675442723,-119.804804899009
Fresno Unified,Lane Elementary,4730 East Lowe Avenue Fresno CA 93702-3918,NA,NA,NA,not tested,Fresno,Fresno County,36.7313023984771,-119.739593496967
Laton Joint Unified,Laton Elementary,6065 Latonia Laton CA 93242-0007,NA,NA,NA,not tested,NA,Fresno County,36.4315067335246,-119.691001272635
Fresno Unified,Lawless Elementary,5255 North Reese Avenue Fresno CA 93722-6111,6.300000000000001,ppb,TRUE,tested,Fresno,Fresno County,36.8128418360133,-119.867133158251
Kings Canyon Joint Unified,Lincoln Elementary,374 East North Avenue Reedley CA 93654-2535,NA,NA,FALSE,tested,Reedley,Fresno County,36.6004714121262,-119.445268746011
Clovis Unified,Lincoln Elementary,774 East Alluvial Avenue Fresno CA 93720-2525,NA,NA,FALSE,tested,Fresno,Fresno County,36.8447861587595,-119.770801285685
Sanger Unified,Lincoln Elementary,1700 14th Street Sanger CA 93657-3442,7,ppb,TRUE,tested,Sanger,Fresno County,36.697031,-119.560185
Fresno Unified,Lowell Elementary,171 North Poplar Avenue Fresno CA 93701-1743,NA,NA,FALSE,tested,Fresno,Fresno County,36.7451965057162,-119.795903837648
Fowler Unified,Malaga Elementary,3910 South Ward Avenue Fresno CA 93725-2538,NA,NA,NA,not tested,NA,Fresno County,36.679105,-119.732883
Fresno Unified,Malloch Elementary,2251 West Morris Avenue Fresno CA 93711-1223,7.800000000000001,ppb,TRUE,tested,Fresno,Fresno County,36.8215820424111,-119.831964761355
Fresno Unified,Manchester Gate,2307 East Dakota Avenue Fresno CA 93726-4001,7.7,ppb,TRUE,tested,Fresno,Fresno County,36.7869107880113,-119.783170666587
Clovis Unified,Maple Creek Elementary,2025 East Teague Avenue Fresno CA 93720-3942,NA,NA,FALSE,tested,Clovis,Fresno County,36.859260711901,-119.747032506563
Fresno Unified,Mario G. Olmos Elementary,550 South Garden Avenue Fresno CA 93727-3843,NA,NA,FALSE,tested,Fresno,Fresno County,36.738022195156,-119.734255387286
Fowler Unified,Marshall Elementary,142 North Armstrong Avenue Fowler CA 93625-9601,NA,NA,NA,not tested,Fowler,Fresno County,36.6352272800409,-119.673361817177
Fresno Unified,Mayfair Elementary,3305 East Home Avenue Fresno CA 93703-4044,NA,NA,FALSE,tested,Fresno,Fresno County,36.763264240538,-119.769320593366
Fresno Unified,McCardle Elementary,577 East Sierra Avenue Fresno CA 93710-3824,NA,NA,FALSE,tested,Fresno,Fresno County,36.8301186914021,-119.777329866727
Kings Canyon Joint Unified,McCord Elementary,333 Center Street Orange Cove CA 93646-2056,NA,NA,NA,not tested,Orange Cove,Fresno County,36.62836665784,-119.31379264069
Central Unified,McKinley Elementary,4444 West McKinley Avenue Fresno CA 93722-5431,8.4,ppb,TRUE,tested,Fresno,Fresno County,36.764636,-119.873802
Fresno Unified,McLane High,2727 North Cedar Ave Fresno CA 93703-2016,NA,NA,FALSE,tested,Fresno,Fresno County,36.7753945415038,-119.754330470299
Mendota Unified,Mendota Community Day,241 Smoot Avenue Mendota CA 93640-2234,NA,NA,NA,not tested,NA,Fresno County,36.7552419555983,-120.389763072417
Mendota Unified,Mendota Continuation High,211 Smoot Avenue Mendota CA 93640-2234,NA,NA,NA,not tested,NA,Fresno County,36.7552457388996,-120.389288268104
Mendota Unified,Mendota Elementary,605 Bass Avenue Mendota CA 93640-2178,NA,NA,NA,not tested,NA,Fresno County,36.76702705,-120.381541236062
Mendota Unified,Mendota High,1200 Belmont Avenue Mendota CA 93640,NA,NA,FALSE,tested,NA,Fresno County,36.749219,-120.373441
Fresno Unified,Miguel Hidalgo Elementary,3550 East Thomas Avenue Fresno CA 93702-1119,NA,NA,FALSE,tested,Fresno,Fresno County,36.7531690204082,-119.765141204082
Clovis Unified,Miramonte Elementary,1590 Bellaire Avenue Clovis CA 93611-5103,8.9,ppb,TRUE,tested,Clovis,Fresno County,36.791243,-119.688150306122
Fresno Unified,Molly S. Bakman Elementary,588 North Helm Fresno CA 93727-2412,NA,NA,FALSE,tested,Clovis,Fresno County,36.83355715625,-119.7239031875
Fresno County Office of Education,Monte Vista School,1221 E. Duff Avenue Reedley CA 93654,6.3,ppb,TRUE,tested,Reedley,Fresno County,36.5931915996689,-119.437228195717
Fresno Unified,Morris E. Dailey Charter Elementary,3135 North Harrison Avenue Fresno CA 93704-5240,NA,NA,FALSE,tested,Fresno,Fresno County,36.7788427623151,-119.810963520675
Kings Canyon Joint Unified,Mountain View (Alternative),877 E. North Avenue Reedley CA 93654-2426,NA,NA,FALSE,tested,Reedley,Fresno County,36.6005437,-119.4471451
Clovis Unified,Mountain View Elementary,2002 East Alluvial Avenue Fresno CA 93720-0100,NA,NA,FALSE,tested,Fresno,Fresno County,36.8448839779841,-119.74757513254
Fresno Unified,Muir Elementary,410 East Dennett Avenue Fresno CA 93728-3108,NA,NA,FALSE,tested,Fresno,Fresno County,36.755903006147,-119.806088887691
Orange Center,National University Academy - Orange Center,3530 South Cherry Ave. Fresno CA 93706-5615,NA,NA,NA,not tested,Fresno,Fresno County,36.682706102194,-119.781646115589
Private,Nelson J Anderson charter school,830 Fresno St Fresno CA 93706,NA,NA,NA,not tested,Fresno,Fresno County,36.7275679052654,-119.803833609817
Fresno County Office of Education,New Spirit Charter Academy,4147 E. Dakota Avenue Fresno CA 93726-5208,NA,NA,NA,not tested,Fresno,Fresno County,36.7869464740568,-119.755569569355
Central Unified,Norman Liddell Elementary,5455 West Alluvial Avenue Fresno CA 93722-2361,NA,NA,FALSE,tested,Fresno,Fresno County,36.8441687770597,-119.887799011295
Fresno Unified,Norseman Elementary,4636 East Weldon Avenue Fresno CA 93703-2713,NA,NA,FALSE,tested,Fresno,Fresno County,36.768544113111,-119.743399511234
Fresno Unified,Nutrition Center,4480 N. Brawley Ave Fresno CA 93722,NA,NA,NA,not tested,Fresno,Fresno County,36.80287166319,-119.862386204197
Orange Center,Orange Center Elementary,3530 South Cherry Avenue Fresno CA 93706-5615,NA,NA,NA,not tested,Fresno,Fresno County,36.682706102194,-119.781646115589
Kings Canyon Joint Unified,Orange Cove High,1700 Anchor Avenue Orange Cove CA 93646-2374,NA,NA,NA,not tested,Orange Cove,Fresno County,36.624646,-119.3226594
Parlier Unified,Parlier Junior High,1200 East Parlier Ave Parlier CA 93648-2493,NA,NA,FALSE,tested,Parlier,Fresno County,36.6117761,-119.5023149
Central Unified,Pathway Community Day,11 South Teilman Fresno CA 93706-1332,NA,NA,FALSE,tested,Fresno,Fresno County,36.7428599183673,-119.821965877551
Central Unified,Pathway Elementary Community Day,21 South Teilman Fresno CA 93706-1332,NA,NA,FALSE,tested,Fresno,Fresno County,36.7427808367347,-119.821964755102
Fresno Unified,Phillip J Patino School of Entrepreneurship,2000 East Cambridge Avenue Fresno CA 93703,NA,NA,FALSE,tested,Fresno,Fresno County,36.769466,-119.788123
Fresno Unified,Phoenix Elementary Academy Community Day,3335 North Arthur Avenue Fresno CA 93705-3507,NA,NA,FALSE,tested,Fresno,Fresno County,36.7806300612245,-119.815434183673
Pine Ridge Elementary,Pine Ridge Elementary,45828 Auberry Road Auberry CA 93602-9721,NA,NA,NA,not tested,NA,Fresno County,37.0586508213469,-119.38157085806
Fresno Unified,Powers-Ginsburg Elementary,110 East Swift Avenue Fresno CA 93704-3511,6.4,ppb,TRUE,tested,Fresno,Fresno County,36.7956019959566,-119.811206204991
Kingsburg Elementary Charter,Rafer Johnson Junior High,1300 Stroud Avenue Kingsburg CA 93631-1000,NA,NA,NA,not tested,NA,Fresno County,36.5250724241597,-119.553476747478
Raisin City Elementary,Raisin City Elementary,6425 West Bowles Avenue Raisin City CA 93652-0069,NA,NA,NA,not tested,NA,Fresno County,36.6009596013577,-119.906306857517
Fresno County Office of Education,Ramacher Head Start,710 N. Hughes Ave. Fresno CA 93728,NA,NA,FALSE,tested,Fresno,Fresno County,36.7521083784634,-119.835404143054
Clovis Unified,Reagan Elementary,3701 Ashlan Avenue Clovis CA 93619-5227,NA,NA,FALSE,tested,Clovis,Fresno County,36.7938739,-119.6730864
Clovis Unified,Red Bank Elementary,1454 Locan Avenue Clovis CA 93611-6901,7.5,ppb,TRUE,tested,Clovis,Fresno County,36.8011332,-119.6550367
Kings Canyon Joint Unified,Reedley High,740 West North Avenue Reedley CA 93654-2418,8.2,ppb,TRUE,tested,Reedley,Fresno County,36.6006838140704,-119.456315452261
Kings Canyon Joint Unified,Reedley Middle College High,995 North Reed Avenue Reedley CA 93654-2017,NA,NA,NA,not tested,Reedley,Fresno County,36.6058319145343,-119.457776
Clovis Unified,Reyburn Intermediate,2901 DeWolf Avenue Clovis CA 93611-5226,NA,NA,FALSE,tested,Clovis,Fresno County,36.8133294,-119.6460266
Central Unified,Rio Vista Middle,6240 West Palo Alto Fresno CA 93722-2001,NA,NA,FALSE,tested,NA,Fresno County,36.8335932,-119.8336038
Central Unified,River Bluff Elementary,6150 West Palo Alto Fresno CA 93722-2000,NA,NA,FALSE,tested,NA,Fresno County,36.8335932,-119.8336038
Riverdale Joint Unified,Riverdale Elementary,3700 Stathem Street Riverdale CA 93656,NA,NA,NA,not tested,NA,Fresno County,36.433964,-119.864138
Clovis Unified,Riverview Elementary,2491 East Behymer Avenue Fresno CA 93720-5419,NA,NA,FALSE,tested,Fresno,Fresno County,36.8811868,-119.7476329
Fresno Unified,Robinson Elementary,555 East Browning Avenue Fresno CA 93710-6108,NA,NA,FALSE,tested,Fresno,Fresno County,36.819273220438,-119.778362795979
Fresno Unified,Roeding Elementary,1225 West Dakota Avenue Fresno CA 93705-2721,NA,NA,FALSE,tested,Fresno,Fresno County,36.7864940099649,-119.825555518544
Clovis Unified,Roger S. Oraze Elementary,3468 North Armstrong Avenue Fresno CA 93727-1456,NA,NA,FALSE,tested,Fresno,Fresno County,36.7449032,-119.6730608
Central Unified,Roosevelt Elementary,2600 North Garfield Ave Fresno CA 93723-9229,NA,NA,NA,not tested,NA,Fresno County,36.7774760365601,-119.925165617192
Fresno Unified,Roosevelt High,4250 East Tulare Street Fresno CA 93702-3037,NA,NA,FALSE,tested,Fowler,Fresno County,36.6264556,-119.6745489
Fresno Unified,Rutherford B. Gaston Sr. Middle,1100 East Church Avenue Fresno CA 93706,8.3,ppb,TRUE,tested,Fresno,Fresno County,36.7140490297555,-119.797546912897
Parlier Unified,S Ben Benavidez Elementary,13900 Tuolumne Street Parlier CA 93648-2839,NA,NA,FALSE,tested,Parlier,Fresno County,36.6084845,-119.5359382
Sanger Unified,Sanger High,1045 Bethel Ave Sanger CA 93657-2985,NA,NA,NA,not tested,Sanger,Fresno County,36.70125325,-119.57777875281
Fresno Unified,School of Unlimited Learning,2336 Calaveras Street Fresno CA 93721-1104,11,ppb,TRUE,tested,Fresno,Fresno County,36.7422769939961,-119.793122131663
Selma Unified,Selma High,3125 Wright St Selma CA 93662-2429,8.3,ppb,TRUE,tested,Selma,Fresno County,36.5811902347223,-119.615020769921
Sanger Unified,Sequoia Elementary,1820 South Armstrong Avenue Fresno CA 93727-6724,NA,NA,FALSE,tested,Fresno,Fresno County,36.71037085,-119.671306150078
Fresno Unified,Sequoia Middle,4050 East Hamilton Avenue Fresno CA 93702-4456,NA,NA,FALSE,tested,Fresno,Fresno County,36.7241184,-119.756946097728
Fresno Unified,Sierra Charter,1931 North Fine Avenue Fresno CA 93727-1510,NA,NA,FALSE,tested,Fresno,Fresno County,36.7683678905983,-119.729057936281
Clovis Unified,Sierra Vista Elementary,510 Barstow Avenue Clovis CA 93612-2228,NA,NA,FALSE,tested,Clovis,Fresno County,36.8156729417296,-119.703716151842
Kings Canyon Joint Unified,Silas Bartsch,2225 East North Avenue Reedley CA 93654-9473,14,ppb,TRUE,tested,Reedley,Fresno County,36.6005437,-119.4471451
Fresno Unified,Slater Elementary,4472 North Emerson Avenue Fresno CA 93705-1206,NA,NA,FALSE,tested,Fresno,Fresno County,36.8044548,-119.8518534
Fresno Unified,Southeast Elementary,5090 E CHURCH AVE Fresno CA 93725,NA,NA,NA,not tested,Fresno,Fresno County,36.7146622823757,-119.723092121316
Fresno Unified,Starr Elementary,1780 West Sierra Avenue Fresno CA 93711-1836,7.2,ppb,TRUE,tested,Fresno,Fresno County,36.8300801773998,-119.824352018385
Fresno Unified,Sunnyside High,1019 South Peach Avenue Fresno CA 93727-4889,NA,NA,FALSE,tested,Fresno,Fresno County,36.7330692733479,-119.718257345024
Fresno Unified,Sunset Elementary,1755 South Crystal Avenue Fresno CA 93706-2721,NA,NA,FALSE,tested,Fresno,Fresno County,36.7242276363636,-119.831059727273
Fresno Unified,Susan B. Anthony Elementary,1542 East Webster Street Fresno CA 93728-3701,NA,NA,FALSE,tested,Sanger,Fresno County,36.7049319,-119.5665926
Clovis Unified,Tarpey Elementary,2700 Minnewawa Avenue Clovis CA 93612-4306,NA,NA,FALSE,tested,Clovis,Fresno County,36.8023965665322,-119.709257835603
Central Unified,Teague Elementary,4725 North Polk Avenue Fresno CA 93722-5319,NA,NA,FALSE,tested,Fresno,Fresno County,36.805201,-119.889554
Clovis Unified,Temperance-Kutner Elementary,1448 North Armstrong Avenue Fresno CA 93727-2803,NA,NA,FALSE,tested,Fresno,Fresno County,36.7566404091477,-119.672949452456
Fresno Unified,Tenaya Middle,1239 West Mesa Avenue Fresno CA 93711-2007,NA,NA,FALSE,tested,Fresno,Fresno County,36.8245994203145,-119.813076613257
Selma Unified,Theodore Roosevelt Elementary,1802 Floral Avenue Selma CA 93662-2808,NA,NA,FALSE,tested,Selma,Fresno County,36.5762791083407,-119.608647142758
Kings Canyon Joint Unified,Thomas Law Reed Elementary,1400 North Frankwood Avenue Reedley CA 93654-2269,NA,NA,FALSE,tested,Reedley,Fresno County,36.6069007,-119.4487235
Fresno Unified,Tioga Middle,3232 East Fairmont Avenue Fresno CA 93726-0607,NA,NA,FALSE,tested,Fresno,Fresno County,36.8067937387813,-119.770843294274
Golden Plains Unified,Tranquillity High,6052 Juanche Street Tranquillity CA 93668,NA,NA,NA,not tested,NA,Fresno County,36.6459347,-120.253201738002
Fresno Unified,Turner Elementary,5218 East Clay Avenue Fresno CA 93727-2502,NA,NA,FALSE,tested,Fresno,Fresno County,36.7557705079761,-119.717307333235
Fresno Unified,Vang Pao Elementary,4100 East Heaton Avenue Fresno CA 93702-4336,NA,NA,FALSE,tested,Fresno,Fresno County,36.7259181,-119.755829347778
Fresno Unified,Viking Elementary,4251 North Winery Avenue Fresno CA 93726-3013,NA,NA,FALSE,tested,Fresno,Fresno County,36.864141,-119.7348176
Fresno Unified,Vinland Elementary,4666 North Maple Avenue Fresno CA 93726-1202,6.1,ppb,TRUE,tested,Fresno,Fresno County,36.8025079135022,-119.745114503107
Fresno County Office of Education,Violet Heintz Education Academy,4939 East Yale Avenue Fresno CA 93727-1523,NA,NA,NA,not tested,Fresno,Fresno County,36.7702351869182,-119.730127443868
Clovis Unified,Virginia R. Borris Elementary,7071 E. Clinton Avenue Fresno CA 93727,NA,NA,FALSE,tested,Fresno,Fresno County,36.772051,-119.662944185907
Kings Canyon Joint Unified,Washington Elementary,1250 K Street Reedley CA 93654-3331,7.3,ppb,TRUE,tested,Reedley,Fresno County,36.5920114620762,-119.45346877911
Fresno Unified,Wawona Middle,4524 North Thorne Avenue Fresno CA 93704-3519,NA,NA,FALSE,tested,Fresno,Fresno County,36.7998208769511,-119.812890445236
Fresno Unified,Webster Elementary,2600 East Tyler Fresno CA 93701-1201,NA,NA,FALSE,tested,Fresno,Fresno County,36.755544,-119.779814
Clovis Unified,Weldon Elementary,150 DeWitt Avenue Clovis CA 93612-1048,NA,NA,FALSE,tested,Clovis,Fresno County,36.827765,-119.704539
West Park Elementary,West Park Charter Academy,2695 South Valentine Avenue Fresno CA 93706-9042,NA,NA,NA,not tested,Fresno,Fresno County,36.6958231426163,-119.853519348023
West Park Elementary,West Park Elementary,2695 South Valentine Ave Fresno CA 93706-9042,NA,NA,NA,not tested,Fresno,Fresno County,36.6958231426163,-119.853519348023
Central Unified,William Saroyan Elementary,5650 West Escalon Avenue Fresno CA 93722-3154,5.8,ppb,TRUE,tested,Fresno,Fresno County,36.8262586,-119.8806
Fresno Unified,Wilson Elementary,2131 West Ashlan Avenue Fresno CA 93705-1701,8.1,ppb,TRUE,tested,Fresno,Fresno County,36.7936685093129,-119.835884933654
Fresno Unified,Wishon Elementary,3857 East Harvard Avenue Fresno CA 93703-1919,NA,NA,FALSE,tested,Fresno,Fresno County,36.7740371680296,-119.76083918335
Fresno Unified,Wolters Elementary,5174 North First Street Fresno CA 93710-7811,6.85,ppb,TRUE,tested,Fresno,Fresno County,36.8461871,-119.7746833
Selma Unified,Woodrow Wilson Elementary,1325 Stillman Street Selma CA 93662-3221,NA,NA,FALSE,tested,Selma,Fresno County,36.5723969417063,-119.602489977736
Clovis Unified,Woods (Harold L.) Elementary,700 Teague Avenue Clovis CA 93619-7544,NA,NA,FALSE,tested,Clovis,Fresno County,36.861206,-119.705015
